[{"city": "El Reno", "zip": "73036", "url": "http://www.bop.gov/PublicInfo/execute/phyloc?todo=query&output=json&code=ERE", "address1": "P.O. BOX 1500", "alternate_names": ["El Reno", "El Reno FCI"], "source": "federal", "state": "OK", "organization": "FCI El Reno", "identifier": "ERE"},
{"city": "Edgefield", "zip": "29824", "url": "http://www.bop.gov/PublicInfo/execute/phyloc?todo=query&output=json&code=EDG", "address1": "P.O. BOX 725", "alternate_names": ["Edgefield", "Edgefield FCI"], "source": "federal", "state": "SC", "organization": "FCI Edgefield", "identifier": "EDG"},
{"city": "Eden", "zip": "76837", "url": "http://www.bop.gov/PublicInfo/execute/phyloc?todo=query&output=json&code=EDN", "address1": "P.O. BOX 605", "alternate_names": ["Eden", "Eden CI"], "source": "federal", "state": "TX", "organization": "CI Eden", "identifier": "EDN"},
{"city": "Duluth", "zip": "55814", "url": "http://www.bop.gov/PublicInfo/execute/phyloc?todo=query&output=json&code=DTH", "address1": "P.O. BOX 1000", "alternate_names": ["Duluth", "Duluth FPC"], "source": "federal", "state": "MN", "organization": "FPC Duluth", "identifier": "DTH"},
{"city": "Dublin", "zip": "94568", "url": "http://www.bop.gov/PublicInfo/execute/phyloc?todo=query&output=json&code=DUB", "address1": "5701 8TH ST - CAMP PARKS", "alternate_names": ["Dublin", "Dublin FCI"], "source": "federal", "state": "CA", "organization": "FCI Dublin", "identifier": "DUB"},
{"city": "Ayer", "zip": "01432", "url": "http://www.bop.gov/PublicInfo/execute/phyloc?todo=query&output=json&code=DEV", "address1": "P.O. BOX 879", "alternate_names": ["Devens", "Devens FMC"], "source": "federal", "state": "MA", "organization": "FMC Devens", "identifier": "DEV"},
{"city": "Milan", "zip": "48160", "url": "http://www.bop.gov/PublicInfo/execute/phyloc?todo=query&output=json&code=CDT", "address1": "4026 E. ARKONA RD.", "alternate_names": ["Detroit", "Detroit RRM"], "source": "federal", "state": "MI", "organization": "RRM Detroit", "identifier": "CDT"},
{"city": "Littleton", "zip": "80123", "url": "http://www.bop.gov/PublicInfo/execute/phyloc?todo=query&output=json&code=CDE", "address1": "9595 W QUINCY AVE.", "alternate_names": ["Denver", "Denver RRM"], "source": "federal", "state": "CO", "organization": "RRM Denver", "identifier": "CDE"},
{"city": "Danbury", "zip": "06811", "url": "http://www.bop.gov/PublicInfo/execute/phyloc?todo=query&output=json&code=DAN", "address1": "ROUTE 37", "alternate_names": ["Danbury", "Danbury FCI"], "source": "federal", "state": "CT", "organization": "FCI Danbury", "identifier": "DAN"},
{"city": "Grand Prairie", "zip": "75051", "url": "http://www.bop.gov/PublicInfo/execute/phyloc?todo=query&output=json&code=CDA", "address1": "US ARMED FORCES RESERVE CMPL", "address2": "344 MARINE FORCES DR", "alternate_names": ["Dallas", "Dallas RRM"], "source": "federal", "state": "TX", "organization": "RRM Dallas", "identifier": "CDA"},
{"city": "Folkston", "zip": "31537", "url": "http://www.bop.gov/PublicInfo/execute/phyloc?todo=query&output=json&code=DRJ", "address1": "P.O. BOX 2000", "alternate_names": ["D. Ray James", "D. Ray James CI"], "source": "federal", "state": "GA", "organization": "CI D. Ray James", "identifier": "DRJ"},
{"city": "Cumberland", "zip": "21501", "url": "http://www.bop.gov/PublicInfo/execute/phyloc?todo=query&output=json&code=CUM", "address1": "P.O. BOX 1000", "alternate_names": ["Cumberland", "Cumberland FCI"], "source": "federal", "state": "MD", "organization": "FCI Cumberland", "identifier": "CUM"},
{"city": "Cincinnati", "zip": "45202", "url": "http://www.bop.gov/PublicInfo/execute/phyloc?todo=query&output=json&code=CCN", "address1": "36 E. 7TH ST., SUITE 2107-A", "alternate_names": ["Cincinnati", "Cincinnati RRM"], "source": "federal", "state": "OH", "organization": "RRM Cincinnati", "identifier": "CCN"},
{"city": "Milan", "zip": "87021", "url": "http://www.bop.gov/PublicInfo/execute/phyloc?todo=query&output=json&code=CIB", "address1": "P.O. BOX 3540", "alternate_names": ["Cibola County", "Cibola County CI"], "source": "federal", "state": "NM", "organization": "CI Cibola County", "identifier": "CIB"},
{"city": "Chicago", "zip": "60606", "url": "http://www.bop.gov/PublicInfo/execute/phyloc?todo=query&output=json&code=CCH", "address1": "200 W. ADAMS ST, RM 2915", "alternate_names": ["Chicago", "Chicago RRM"], "source": "federal", "state": "IL", "organization": "RRM Chicago", "identifier": "CCH"},
{"city": "Miami", "zip": "33101", "url": "http://www.bop.gov/PublicInfo/execute/phyloc?todo=query&output=json&code=MIM", "address1": "P.O. BOX 019120", "alternate_names": ["Miami", "Miami FDC"], "source": "federal", "state": "FL", "organization": "FDC Miami", "identifier": "MIM"},
{"city": "Miami", "zip": "33177", "url": "http://www.bop.gov/PublicInfo/execute/phyloc?todo=query&output=json&code=MIA", "address1": "P.O. BOX 779800", "alternate_names": ["Miami", "Miami FCI"], "source": "federal", "state": "FL", "organization": "FCI Miami", "identifier": "MIA"},
{"city": "Mendota", "zip": "93640", "url": "http://www.bop.gov/PublicInfo/execute/phyloc?todo=query&output=json&code=MEN", "address1": "P.O. BOX 9", "alternate_names": ["Mendota", "Mendota FCI"], "source": "federal", "state": "CA", "organization": "FCI Mendota", "identifier": "MEN"},
{"city": "Memphis", "zip": "38184", "url": "http://www.bop.gov/PublicInfo/execute/phyloc?todo=query&output=json&code=MEM", "address1": "P.O, BOX 34550", "alternate_names": ["Memphis", "Memphis FCI"], "source": "federal", "state": "TN", "organization": "FCI Memphis", "identifier": "MEM"},
{"city": "Mcrae Helena", "zip": "31055", "url": "http://www.bop.gov/PublicInfo/execute/phyloc?todo=query&output=json&code=MCA", "address1": "P.O. DRAWER 55030", "alternate_names": ["McRae", "McRae CI"], "source": "federal", "state": "GA", "organization": "CI McRae", "identifier": "MCA"},
{"city": "Bradford", "zip": "16701", "url": "http://www.bop.gov/PublicInfo/execute/phyloc?todo=query&output=json&code=MCK", "address1": "P.O. BOX 8000", "alternate_names": ["McKean", "McKean FCI"], "source": "federal", "state": "PA", "organization": "FCI McKean", "identifier": "MCK"},
{"city": "Welch", "zip": "24801", "url": "http://www.bop.gov/PublicInfo/execute/phyloc?todo=query&output=json&code=MCD", "address1": "P.O.BOX 1009", "alternate_names": ["McDowell", "McDowell FCI"], "source": "federal", "state": "WV", "organization": "FCI McDowell", "identifier": "MCD"},
{"city": "Pine Knot", "zip": "42635", "url": "http://www.bop.gov/PublicInfo/execute/phyloc?todo=query&output=json&code=MCR", "address1": "P.O. BOX 3000", "alternate_names": ["McCreary", "McCreary USP"], "source": "federal", "state": "KY", "organization": "USP McCreary", "identifier": "MCR"},
{"city": "Marion", "zip": "62959", "url": "http://www.bop.gov/PublicInfo/execute/phyloc?todo=query&output=json&code=MAR", "address1": "P.O. BOX 1000", "alternate_names": ["Marion", "Marion USP"], "source": "federal", "state": "IL", "organization": "USP Marion", "identifier": "MAR"},
{"city": "Marianna", "zip": "32447", "url": "http://www.bop.gov/PublicInfo/execute/phyloc?todo=query&output=json&code=MNA", "address1": "P.O. BOX 7007", "alternate_names": ["Marianna", "Marianna FCI"], "source": "federal", "state": "FL", "organization": "FCI Marianna", "identifier": "MNA"},
{"city": "Manchester", "zip": "40962", "url": "http://www.bop.gov/PublicInfo/execute/phyloc?todo=query&output=json&code=MAN", "address1": "P.O. BOX 4000", "alternate_names": ["Manchester", "Manchester FCI"], "source": "federal", "state": "KY", "organization": "FCI Manchester", "identifier": "MAN"},
{"city": "Los Angeles", "zip": "90053", "url": "http://www.bop.gov/PublicInfo/execute/phyloc?todo=query&output=json&code=LOS", "address1": "P.O. BOX 1500", "alternate_names": ["Los Angeles", "Los Angeles MDC"], "source": "federal", "state": "CA", "organization": "MDC Los Angeles", "identifier": "LOS"},
{"city": "Loretto", "zip": "15940", "url": "http://www.bop.gov/PublicInfo/execute/phyloc?todo=query&output=json&code=LOR", "address1": "P.O. BOX 1000", "alternate_names": ["Loretto", "Loretto FCI"], "source": "federal", "state": "PA", "organization": "FCI Loretto", "identifier": "LOR"},
{"city": "San Pedro", "zip": "90731", "url": "http://www.bop.gov/PublicInfo/execute/phyloc?todo=query&output=json&code=CLB", "address1": "1299 SEASIDE AVENUE", "alternate_names": ["Long Beach", "Long Beach RRM"], "source": "federal", "state": "CA", "organization": "RRM Long Beach", "identifier": "CLB"},
{"city": "Lexington", "zip": "40512", "url": "http://www.bop.gov/PublicInfo/execute/phyloc?todo=query&output=json&code=LEX", "address1": "P.O. BOX 14500", "alternate_names": ["Lexington", "Lexington FMC"], "source": "federal", "state": "KY", "organization": "FMC Lexington", "identifier": "LEX"},
{"city": "Sandstone", "zip": "55072", "url": "http://www.bop.gov/PublicInfo/execute/phyloc?todo=query&output=json&code=SST", "address1": "P.O. BOX 1000", "alternate_names": ["Sandstone", "Sandstone FCI"], "source": "federal", "state": "MN", "organization": "FCI Sandstone", "identifier": "SST"},
{"city": "San Diego", "zip": "92101", "url": "http://www.bop.gov/PublicInfo/execute/phyloc?todo=query&output=json&code=SDC", "address1": "808 UNION STREET", "alternate_names": ["San Diego", "San Diego MCC"], "source": "federal", "state": "CA", "organization": "MCC San Diego", "identifier": "SDC"},
{"city": "San Antonio", "zip": "78206", "url": "http://www.bop.gov/PublicInfo/execute/phyloc?todo=query&output=json&code=CSA", "address1": "727 EAST CESAR E. CHAVEZ BLV", "address2": "SUITE B-138", "alternate_names": ["San Antonio", "San Antonio RRM"], "source": "federal", "state": "TX", "organization": "RRM San Antonio", "identifier": "CSA"},
{"city": "Salt Lake City", "zip": "84111", "url": "http://www.bop.gov/PublicInfo/execute/phyloc?todo=query&output=json&code=CSL", "address1": "324 SOUTH STATE ST., STE 228", "alternate_names": ["Salt Lake City", "Salt Lake City RRM"], "source": "federal", "state": "UT", "organization": "RRM Salt Lake City", "identifier": "CSL"},
{"city": "Safford", "zip": "85548", "url": "http://www.bop.gov/PublicInfo/execute/phyloc?todo=query&output=json&code=SAF", "address1": "P.O. BOX 9000", "alternate_names": ["Safford", "Safford FCI"], "source": "federal", "state": "AZ", "organization": "FCI Safford", "identifier": "SAF"},
{"city": "Sacramento", "zip": "95814", "url": "http://www.bop.gov/PublicInfo/execute/phyloc?todo=query&output=json&code=CSC", "address1": "501 I STREET, SUITE 9-400", "alternate_names": ["Sacramento", "Sacramento RRM"], "source": "federal", "state": "CA", "organization": "RRM Sacramento", "identifier": "CSC"},
{"city": "Rochester", "zip": "55903", "url": "http://www.bop.gov/PublicInfo/execute/phyloc?todo=query&output=json&code=RCH", "address1": "P.O. BOX 4000", "alternate_names": ["Rochester", "Rochester FMC"], "source": "federal", "state": "MN", "organization": "FMC Rochester", "identifier": "RCH"},
{"city": "Winton", "zip": "27986", "url": "http://www.bop.gov/PublicInfo/execute/phyloc?todo=query&output=json&code=RIV", "address1": "P.O. BOX 630", "alternate_names": ["Rivers", "Rivers CI"], "source": "federal", "state": "NC", "organization": "CI Rivers", "identifier": "RIV"},
{"city": "Pecos", "zip": "79772", "url": "http://www.bop.gov/PublicInfo/execute/phyloc?todo=query&output=json&code=RVS", "address1": "P.O. BOX 2038", "alternate_names": ["Reeves III", "Reeves III CI"], "source": "federal", "state": "TX", "organization": "CI Reeves III", "identifier": "RVS"},
{"city": "Pecos", "zip": "79772", "url": "http://www.bop.gov/PublicInfo/execute/phyloc?todo=query&output=json&code=REE", "address1": "P.O. BOX 1560", "alternate_names": ["Reeves I & II", "Reeves I & II CI"], "source": "federal", "state": "TX", "organization": "CI Reeves I & II", "identifier": "REE"},
{"city": "Ray Brook", "zip": "12977", "url": "http://www.bop.gov/PublicInfo/execute/phyloc?todo=query&output=json&code=RBK", "address1": "P.O. BOX 900", "alternate_names": ["Ray Brook", "Ray Brook FCI"], "source": "federal", "state": "NY", "organization": "FCI Ray Brook", "identifier": "RBK"},
{"city": "Butner", "zip": "27509", "url": "http://www.bop.gov/PublicInfo/execute/phyloc?todo=query&output=json&code=CRL", "address1": "OLD NC 75 HIGHWAY", "alternate_names": ["Raleigh", "Raleigh RRM"], "source": "federal", "state": "NC", "organization": "RRM Raleigh", "identifier": "CRL"},
{"city": "Pittsburgh", "zip": "15222", "url": "http://www.bop.gov/PublicInfo/execute/phyloc?todo=query&output=json&code=CPG", "address1": "1000 LIBERTY AVENUE,STE 1315", "alternate_names": ["Pittsburgh", "Pittsburgh RRM"], "source": "federal", "state": "PA", "organization": "RRM Pittsburgh", "identifier": "CPG"},
{"city": "Phoenix", "zip": "85003", "url": "http://www.bop.gov/PublicInfo/execute/phyloc?todo=query&output=json&code=CPH", "address1": "230 N FIRST AVE, SUITE 405", "alternate_names": ["Phoenix", "Phoenix RRM"], "source": "federal", "state": "AZ", "organization": "RRM Phoenix", "identifier": "CPH"},
{"city": "Phoenix", "zip": "85086", "url": "http://www.bop.gov/PublicInfo/execute/phyloc?todo=query&output=json&code=PHX", "address1": "37910 N 45TH AVE", "alternate_names": ["Phoenix", "Phoenix FCI"], "source": "federal", "state": "AZ", "organization": "FCI Phoenix", "identifier": "PHX"},
{"city": "Coleman", "zip": "33521", "url": "http://www.bop.gov/PublicInfo/execute/phyloc?todo=query&output=json&code=COP", "address1": "P.O. BOX 1033", "alternate_names": ["Coleman I", "Coleman I USP"], "source": "federal", "state": "FL", "organization": "USP Coleman I", "identifier": "COP"},
{"city": "Coleman", "zip": "33521", "url": "http://www.bop.gov/PublicInfo/execute/phyloc?todo=query&output=json&code=COM", "address1": "P.O. BOX 1032", "alternate_names": ["Coleman Medium", "Coleman Medium FCI"], "source": "federal", "state": "FL", "organization": "FCI Coleman Medium", "identifier": "COM"},
{"city": "Coleman", "zip": "33521", "url": "http://www.bop.gov/PublicInfo/execute/phyloc?todo=query&output=json&code=COL", "address1": "P.O. BOX 1031", "alternate_names": ["Coleman Low", "Coleman Low FCI"], "source": "federal", "state": "FL", "organization": "FCI Coleman Low", "identifier": "COL"},
{"city": "Coleman", "zip": "33521", "url": "http://www.bop.gov/PublicInfo/execute/phyloc?todo=query&output=json&code=CLP", "address1": "P.O. BOX 1034", "alternate_names": ["Coleman II", "Coleman II USP"], "source": "federal", "state": "FL", "organization": "USP Coleman II", "identifier": "CLP"},
{"city": "Yankton", "zip": "57078", "url": "http://www.bop.gov/PublicInfo/execute/phyloc?todo=query&output=json&code=YAN", "address1": "P.O. BOX 700", "alternate_names": ["Yankton", "Yankton FPC"], "source": "federal", "state": "SD", "organization": "FPC Yankton", "identifier": "YAN"},
{"city": "Salters", "zip": "29590", "url": "http://www.bop.gov/PublicInfo/execute/phyloc?todo=query&output=json&code=WIL", "address1": "P.O. BOX 340", "alternate_names": ["Williamsburg", "Williamsburg FCI"], "source": "federal", "state": "SC", "organization": "FCI Williamsburg", "identifier": "WIL"},
{"city": "Raymondville", "zip": "78580", "url": "http://www.bop.gov/PublicInfo/execute/phyloc?todo=query&output=json&code=WLC", "address1": "1800 INDUSTRIAL DRIVE", "alternate_names": ["Willacy County", "Willacy County CI"], "source": "federal", "state": "TX", "organization": "CI Willacy County", "identifier": "WLC"},
{"city": "Stockton", "zip": "95219", "url": "http://www.bop.gov/PublicInfo/execute/phyloc?todo=query&output=json&code=WXR", "address1": "7338 SHORELINE DRIVE", "alternate_names": ["Western", "Western RO"], "source": "federal", "state": "CA", "organization": "RO Western", "identifier": "WXR"},
{"city": "Annapolis Junct", "zip": "20701", "url": "http://www.bop.gov/PublicInfo/execute/phyloc?todo=query&output=json&code=CDC", "address1": "302 SENTINEL DRIVE", "address2": "SUITE 200", "alternate_names": ["Washington, DC", "Washington, DC RRM"], "source": "federal", "state": "MD", "organization": "RRM Washington, DC", "identifier": "CDC"},
{"city": "Waseca", "zip": "56093", "url": "http://www.bop.gov/PublicInfo/execute/phyloc?todo=query&output=json&code=WAS", "address1": "P.O. BOX 1731", "alternate_names": ["Waseca", "Waseca FCI"], "source": "federal", "state": "MN", "organization": "FCI Waseca", "identifier": "WAS"},
{"city": "Three Rivers", "zip": "78071", "url": "http://www.bop.gov/PublicInfo/execute/phyloc?todo=query&output=json&code=TRV", "address1": "P.O. BOX 4200", "alternate_names": ["Three Rivers", "Three Rivers FCI"], "source": "federal", "state": "TX", "organization": "FCI Three Rivers", "identifier": "TRV"},
{"city": "Texarkana", "zip": "75505", "url": "http://www.bop.gov/PublicInfo/execute/phyloc?todo=query&output=json&code=TEX", "address1": "P.O. BOX 7000", "alternate_names": ["Texarkana", "Texarkana FCI"], "source": "federal", "state": "TX", "organization": "FCI Texarkana", "identifier": "TEX"},
{"city": "Lompoc", "zip": "93436", "url": "http://www.bop.gov/PublicInfo/execute/phyloc?todo=query&output=json&code=LOM", "address1": "3901 KLEIN BLVD", "alternate_names": ["Lompoc", "Lompoc USP"], "source": "federal", "state": "CA", "organization": "USP Lompoc", "identifier": "LOM"},
{"city": "Lompoc", "zip": "93436", "url": "http://www.bop.gov/PublicInfo/execute/phyloc?todo=query&output=json&code=LOF", "address1": "3600 GUARD ROAD", "alternate_names": ["Lompoc", "Lompoc FCI"], "source": "federal", "state": "CA", "organization": "FCI Lompoc", "identifier": "LOF"},
{"city": "San Pedro", "zip": "90731", "url": "http://www.bop.gov/PublicInfo/execute/phyloc?todo=query&output=json&code=TRM", "address1": "PO BOX 3007", "alternate_names": ["Terminal Island", "Terminal Island FCI"], "source": "federal", "state": "CA", "organization": "FCI Terminal Island", "identifier": "TRM"},
{"city": "Tallahassee", "zip": "32301", "url": "http://www.bop.gov/PublicInfo/execute/phyloc?todo=query&output=json&code=TAL", "address1": "501 CAPITAL CIRCLE, NE", "alternate_names": ["Tallahassee", "Tallahassee FCI"], "source": "federal", "state": "FL", "organization": "FCI Tallahassee", "identifier": "TAL"},
{"city": "Talladega", "zip": "35160", "url": "http://www.bop.gov/PublicInfo/execute/phyloc?todo=query&output=json&code=TDG", "address1": "P.M.B 1000", "alternate_names": ["Talladega", "Talladega FCI"], "source": "federal", "state": "AL", "organization": "FCI Talladega", "identifier": "TDG"},
{"city": "Taft", "zip": "93268", "url": "http://www.bop.gov/PublicInfo/execute/phyloc?todo=query&output=json&code=TAF", "address1": "P.O. BOX 7001", "alternate_names": ["Taft", "Taft CI"], "source": "federal", "state": "CA", "organization": "CI Taft", "identifier": "TAF"},
{"city": "St Louis", "zip": "63103", "url": "http://www.bop.gov/PublicInfo/execute/phyloc?todo=query&output=json&code=CST", "address1": "1222 SPRUCE ST, SUITE 6.101", "alternate_names": ["St Louis", "St Louis RRM"], "source": "federal", "state": "MO", "organization": "RRM St Louis", "identifier": "CST"},
{"city": "Springfield", "zip": "65801", "url": "http://www.bop.gov/PublicInfo/execute/phyloc?todo=query&output=json&code=SPG", "address1": "P.O. BOX 4000", "alternate_names": ["Springfield", "Springfield MCFP"], "source": "federal", "state": "MO", "organization": "MCFP Springfield", "identifier": "SPG"},
{"city": "Atlanta", "zip": "30331", "url": "http://www.bop.gov/PublicInfo/execute/phyloc?todo=query&output=json&code=SER", "address1": "3800 CAMP CRK PK SW/BDG 2000", "alternate_names": ["Southeast", "Southeast RO"], "source": "federal", "state": "GA", "organization": "RO Southeast", "identifier": "SER"},
{"city": "Grand Prairie", "zip": "75051", "url": "http://www.bop.gov/PublicInfo/execute/phyloc?todo=query&output=json&code=SCR", "address1": "US ARMED FORCES RESERVE CMPL", "address2": "346 MARINE FORCES DR", "alternate_names": ["South Central", "South Central RO"], "source": "federal", "state": "TX", "organization": "RO South Central", "identifier": "SCR"},
{"city": "Sheridan", "zip": "97378", "url": "http://www.bop.gov/PublicInfo/execute/phyloc?todo=query&output=json&code=SHE", "address1": "P.O. BOX 5000", "alternate_names": ["Sheridan", "Sheridan FCI"], "source": "federal", "state": "OR", "organization": "FCI Sheridan", "identifier": "SHE"},
{"city": "Seattle", "zip": "98198", "url": "http://www.bop.gov/PublicInfo/execute/phyloc?todo=query&output=json&code=CSE", "address1": "2425 SOUTH 200 ST (AT FDC)", "alternate_names": ["Seattle", "Seattle RRM"], "source": "federal", "state": "WA", "organization": "RRM Seattle", "identifier": "CSE"},
{"city": "Seattle", "zip": "98198", "url": "http://www.bop.gov/PublicInfo/execute/phyloc?todo=query&output=json&code=SET", "address1": "P.O. BOX 13900", "alternate_names": ["SeaTac", "SeaTac FDC"], "source": "federal", "state": "WA", "organization": "FDC SeaTac", "identifier": "SET"},
{"city": "Seagoville", "zip": "75159", "url": "http://www.bop.gov/PublicInfo/execute/phyloc?todo=query&output=json&code=SEA", "address1": "P.O. BOX 9000", "alternate_names": ["Seagoville", "Seagoville FCI"], "source": "federal", "state": "TX", "organization": "FCI Seagoville", "identifier": "SEA"},
{"city": "Minersville", "zip": "17954", "url": "http://www.bop.gov/PublicInfo/execute/phyloc?todo=query&output=json&code=SCH", "address1": "P.O. BOX 759", "alternate_names": ["Schuylkill", "Schuylkill FCI"], "source": "federal", "state": "PA", "organization": "FCI Schuylkill", "identifier": "SCH"},
{"city": "Philadelphia", "zip": "19106", "url": "http://www.bop.gov/PublicInfo/execute/phyloc?todo=query&output=json&code=CPA", "address1": "2ND & CHESTNUT ST - 7TH FL", "alternate_names": ["Philadelphia", "Philadelphia RRM"], "source": "federal", "state": "PA", "organization": "RRM Philadelphia", "identifier": "CPA"},
{"city": "Pollock", "zip": "71467", "url": "http://www.bop.gov/PublicInfo/execute/phyloc?todo=query&output=json&code=POM", "address1": "P.O. BOX 4050", "alternate_names": ["Pollock", "Pollock FCI"], "source": "federal", "state": "LA", "organization": "FCI Pollock", "identifier": "POM"},
{"city": "Pollock", "zip": "71467", "url": "http://www.bop.gov/PublicInfo/execute/phyloc?todo=query&output=json&code=POL", "address1": "P.O. BOX 2099", "alternate_names": ["Pollock", "Pollock USP"], "source": "federal", "state": "LA", "organization": "USP Pollock", "identifier": "POL"},
{"city": "Philadelphia", "zip": "19105", "url": "http://www.bop.gov/PublicInfo/execute/phyloc?todo=query&output=json&code=PHL", "address1": "P.O. BOX 562", "alternate_names": ["Philadelphia", "Philadelphia FDC"], "source": "federal", "state": "PA", "organization": "FDC Philadelphia", "identifier": "PHL"},
{"city": "Pensacola", "zip": "32516", "url": "http://www.bop.gov/PublicInfo/execute/phyloc?todo=query&output=json&code=PEN", "address1": "P.O. BOX 3949", "alternate_names": ["Pensacola", "Pensacola FPC"], "source": "federal", "state": "FL", "organization": "FPC Pensacola", "identifier": "PEN"},
{"city": "Pekin", "zip": "61555", "url": "http://www.bop.gov/PublicInfo/execute/phyloc?todo=query&output=json&code=PEK", "address1": "P.O. BOX 5000", "alternate_names": ["Pekin", "Pekin FCI"], "source": "federal", "state": "IL", "organization": "FCI Pekin", "identifier": "PEK"},
{"city": "Oxford", "zip": "53952", "url": "http://www.bop.gov/PublicInfo/execute/phyloc?todo=query&output=json&code=OXF", "address1": "P.O. BOX 1000", "alternate_names": ["Oxford", "Oxford FCI"], "source": "federal", "state": "WI", "organization": "FCI Oxford", "identifier": "OXF"},
{"city": "Otisville", "zip": "10963", "url": "http://www.bop.gov/PublicInfo/execute/phyloc?todo=query&output=json&code=OTV", "address1": "P.O. BOX  1000", "alternate_names": ["Otisville", "Otisville FCI"], "source": "federal", "state": "NY", "organization": "FCI Otisville", "identifier": "OTV"},
{"city": "Wildwood", "zip": "34785", "url": "http://www.bop.gov/PublicInfo/execute/phyloc?todo=query&output=json&code=COR", "address1": "6303 COUNTY ROAD 500", "alternate_names": ["Orlando", "Orlando RRM"], "source": "federal", "state": "FL", "organization": "RRM Orlando", "identifier": "COR"},
{"city": "Oklahoma City", "zip": "73189", "url": "http://www.bop.gov/PublicInfo/execute/phyloc?todo=query&output=json&code=OKL", "address1": "P.O. BOX 898801", "alternate_names": ["Oklahoma City", "Oklahoma City FTC"], "source": "federal", "state": "OK", "organization": "FTC Oklahoma City", "identifier": "OKL"},
{"city": "Philadelphia", "zip": "19106", "url": "http://www.bop.gov/PublicInfo/execute/phyloc?todo=query&output=json&code=NER", "address1": "U.S. CUSTOM HOUSE, 7TH FLOOR", "address2": "200 CHESTNUT STREET", "alternate_names": ["Northeast", "Northeast RO"], "source": "federal", "state": "PA", "organization": "RO Northeast", "identifier": "NER"},
{"city": "Kansas City", "zip": "66101", "url": "http://www.bop.gov/PublicInfo/execute/phyloc?todo=query&output=json&code=NCR", "address1": "400 STATE AVENUE, SUITE 800", "alternate_names": ["North Central", "North Central RO"], "source": "federal", "state": "KS", "organization": "RO North Central", "identifier": "NCR"},
{"city": "Brooklyn", "zip": "11232", "url": "http://www.bop.gov/PublicInfo/execute/phyloc?todo=query&output=json&code=CNK", "address1": "100 29TH STEET", "alternate_names": ["New York", "New York RRM"], "source": "federal", "state": "NY", "organization": "RRM New York", "identifier": "CNK"},
{"city": "New York", "zip": "10007", "url": "http://www.bop.gov/PublicInfo/execute/phyloc?todo=query&output=json&code=NYM", "address1": "150 PARK ROW", "alternate_names": ["New York", "New York MCC"], "source": "federal", "state": "NY", "organization": "MCC New York", "identifier": "NYM"},
{"city": "Youngstown", "zip": "44501", "url": "http://www.bop.gov/PublicInfo/execute/phyloc?todo=query&output=json&code=NEO", "address1": "2240 HUBBARD RD.", "alternate_names": ["NE Ohio Corr Ctr", "NE Ohio Corr Ctr CI"], "source": "federal", "state": "OH", "organization": "CI NE Ohio Corr Ctr", "identifier": "NEO"},
{"city": "Terre Haute", "zip": "47808", "url": "http://www.bop.gov/PublicInfo/execute/phyloc?todo=query&output=json&code=THP", "address1": "P.O. BOX 33", "alternate_names": ["Terre Haute", "Terre Haute USP"], "source": "federal", "state": "IN", "organization": "USP Terre Haute", "identifier": "THP"},
{"city": "Terre Haute", "zip": "47808", "url": "http://www.bop.gov/PublicInfo/execute/phyloc?todo=query&output=json&code=THA", "address1": "P.O. BOX 33", "alternate_names": ["Terre Haute", "Terre Haute FCI"], "source": "federal", "state": "IN", "organization": "FCI Terre Haute", "identifier": "THA"},
{"city": "Tucson", "zip": "85734", "url": "http://www.bop.gov/PublicInfo/execute/phyloc?todo=query&output=json&code=TCP", "address1": "P.O. BOX 24550", "alternate_names": ["Tucson", "Tucson USP"], "source": "federal", "state": "AZ", "organization": "USP Tucson", "identifier": "TCP"},
{"city": "Tucson", "zip": "85734", "url": "http://www.bop.gov/PublicInfo/execute/phyloc?todo=query&output=json&code=TCN", "address1": "P.O. BOX 23811", "alternate_names": ["Tucson", "Tucson FCI"], "source": "federal", "state": "AZ", "organization": "FCI Tucson", "identifier": "TCN"},
{"city": "Adelanto", "zip": "92301", "url": "http://www.bop.gov/PublicInfo/execute/phyloc?todo=query&output=json&code=VVM", "address1": "PO BOX 3850", "alternate_names": ["Victorville Medium II", "Victorville Medium II FCI"], "source": "federal", "state": "CA", "organization": "FCI Victorville Medium II", "identifier": "VVM"},
{"city": "Adelanto", "zip": "92301", "url": "http://www.bop.gov/PublicInfo/execute/phyloc?todo=query&output=json&code=VIP", "address1": "P.O. BOX 3900", "alternate_names": ["Victorville", "Victorville USP"], "source": "federal", "state": "CA", "organization": "USP Victorville", "identifier": "VIP"},
{"city": "Adelanto", "zip": "92301", "url": "http://www.bop.gov/PublicInfo/execute/phyloc?todo=query&output=json&code=VIM", "address1": "P.O. BOX 3725", "alternate_names": ["Victorville Medium I", "Victorville Medium I FCI"], "source": "federal", "state": "CA", "organization": "FCI Victorville Medium I", "identifier": "VIM"},
{"city": "Yazoo City", "zip": "39194", "url": "http://www.bop.gov/PublicInfo/execute/phyloc?todo=query&output=json&code=YAZ", "address1": "P.O. BOX 5000", "alternate_names": ["Yazoo City Low", "Yazoo City Low FCI"], "source": "federal", "state": "MS", "organization": "FCI Yazoo City Low", "identifier": "YAZ"},
{"city": "Yazoo City", "zip": "39194", "url": "http://www.bop.gov/PublicInfo/execute/phyloc?todo=query&output=json&code=YAP", "address1": "P.O. BOX 5000", "alternate_names": ["Yazoo City", "Yazoo City USP"], "source": "federal", "state": "MS", "organization": "USP Yazoo City", "identifier": "YAP"},
{"city": "Yazoo City", "zip": "39194", "url": "http://www.bop.gov/PublicInfo/execute/phyloc?todo=query&output=json&code=YAM", "address1": "P.O. BOX 5888", "alternate_names": ["Yazoo City Medium", "Yazoo City Medium FCI"], "source": "federal", "state": "MS", "organization": "FCI Yazoo City Medium", "identifier": "YAM"},
{"city": "Nashville", "zip": "37203", "url": "http://www.bop.gov/PublicInfo/execute/phyloc?todo=query&output=json&code=CNV", "address1": "701 BROADWAY ST, SUITE 124", "alternate_names": ["Nashville", "Nashville RRM"], "source": "federal", "state": "TN", "organization": "RRM Nashville", "identifier": "CNV"},
{"city": "Philipsburg", "zip": "16866", "url": "http://www.bop.gov/PublicInfo/execute/phyloc?todo=query&output=json&code=MVC", "address1": "555 GEO DRIVE", "alternate_names": ["Moshannon Valley", "Moshannon Valley CI"], "source": "federal", "state": "PA", "organization": "CI Moshannon Valley", "identifier": "MVC"},
{"city": "Morgantown", "zip": "26507", "url": "http://www.bop.gov/PublicInfo/execute/phyloc?todo=query&output=json&code=MRG", "address1": "P.O. BOX 1000", "alternate_names": ["Morgantown", "Morgantown FCI"], "source": "federal", "state": "WV", "organization": "FCI Morgantown", "identifier": "MRG"},
{"city": "Montgomery", "zip": "36112", "url": "http://www.bop.gov/PublicInfo/execute/phyloc?todo=query&output=json&code=CMY", "address1": "MAXWELL AFB, BLDG 1209", "address2": "820 WILLOW STREET", "alternate_names": ["Montgomery", "Montgomery RRM"], "source": "federal", "state": "AL", "organization": "RRM Montgomery", "identifier": "CMY"},
{"city": "Montgomery", "zip": "36112", "url": "http://www.bop.gov/PublicInfo/execute/phyloc?todo=query&output=json&code=MON", "address1": "MAXWELL AIR FORCE BASE", "alternate_names": ["Montgomery", "Montgomery FPC"], "source": "federal", "state": "AL", "organization": "FPC Montgomery", "identifier": "MON"},
{"city": "Minneapolis", "zip": "55415", "url": "http://www.bop.gov/PublicInfo/execute/phyloc?todo=query&output=json&code=CMS", "address1": "300 SOUTH 4TH ST, SUITE 1210", "alternate_names": ["Minneapolis", "Minneapolis RRM"], "source": "federal", "state": "MN", "organization": "RRM Minneapolis", "identifier": "CMS"},
{"city": "Milan", "zip": "48160", "url": "http://www.bop.gov/PublicInfo/execute/phyloc?todo=query&output=json&code=MIL", "address1": "P.O. BOX 1000", "alternate_names": ["Milan", "Milan FCI"], "source": "federal", "state": "MI", "organization": "FCI Milan", "identifier": "MIL"},
{"city": "Annapolis Junct", "zip": "20701", "url": "http://www.bop.gov/PublicInfo/execute/phyloc?todo=query&output=json&code=MXR", "address1": "302 SENTINEL DRIVE", "address2": "SUITE 200", "alternate_names": ["Mid-Atlantic", "Mid-Atlantic RO"], "source": "federal", "state": "MD", "organization": "RO Mid-Atlantic", "identifier": "MXR"},
{"city": "Miami", "zip": "33128", "url": "http://www.bop.gov/PublicInfo/execute/phyloc?todo=query&output=json&code=CMM", "address1": "401 N MIAMI AVENUE", "alternate_names": ["Miami", "Miami RRM"], "source": "federal", "state": "FL", "organization": "RRM Miami", "identifier": "CMM"},
{"city": "Lewisburg", "zip": "17837", "url": "http://www.bop.gov/PublicInfo/execute/phyloc?todo=query&output=json&code=LEW", "address1": "P.O. BOX 1000", "alternate_names": ["Lewisburg", "Lewisburg USP"], "source": "federal", "state": "PA", "organization": "USP Lewisburg", "identifier": "LEW"},
{"city": "Jonesville", "zip": "24263", "url": "http://www.bop.gov/PublicInfo/execute/phyloc?todo=query&output=json&code=LEE", "address1": "P.O. BOX 305", "alternate_names": ["Lee", "Lee USP"], "source": "federal", "state": "VA", "organization": "USP Lee", "identifier": "LEE"},
{"city": "Leavenworth", "zip": "66048", "url": "http://www.bop.gov/PublicInfo/execute/phyloc?todo=query&output=json&code=LVN", "address1": "P.O. BOX 1000", "alternate_names": ["Leavenworth", "Leavenworth USP"], "source": "federal", "state": "KS", "organization": "USP Leavenworth", "identifier": "LVN"},
{"city": "Anthony", "zip": "88021", "url": "http://www.bop.gov/PublicInfo/execute/phyloc?todo=query&output=json&code=LAT", "address1": "P.O. BOX 3000", "alternate_names": ["La Tuna", "La Tuna FCI"], "source": "federal", "state": "TX", "organization": "FCI La Tuna", "identifier": "LAT"},
{"city": "Kansas City", "zip": "66101", "url": "http://www.bop.gov/PublicInfo/execute/phyloc?todo=query&output=json&code=CKC", "address1": "400 STATE AVE., RM 131", "alternate_names": ["Kansas City", "Kansas City RRM"], "source": "federal", "state": "KS", "organization": "RRM Kansas City", "identifier": "CKC"},
{"city": "Jesup", "zip": "31599", "url": "http://www.bop.gov/PublicInfo/execute/phyloc?todo=query&output=json&code=JES", "address1": "2680 301 SOUTH", "alternate_names": ["Jesup", "Jesup FCI"], "source": "federal", "state": "GA", "organization": "FCI Jesup", "identifier": "JES"},
{"city": "San Antonio", "zip": "78206", "url": "http://www.bop.gov/PublicInfo/execute/phyloc?todo=query&output=json&code=CHN", "address1": "727 EAST CESAR E. CHAVEZ BLV", "address2": "SUITE B-138", "alternate_names": ["Houston", "Houston RRM"], "source": "federal", "state": "TX", "organization": "RRM Houston", "identifier": "CHN"},
{"city": "Houston", "zip": "77052", "url": "http://www.bop.gov/PublicInfo/execute/phyloc?todo=query&output=json&code=HOU", "address1": "P.O. BOX 526255", "alternate_names": ["Houston", "Houston FDC"], "source": "federal", "state": "TX", "organization": "FDC Houston", "identifier": "HOU"},
{"city": "Honolulu", "zip": "96820", "url": "http://www.bop.gov/PublicInfo/execute/phyloc?todo=query&output=json&code=HON", "address1": "P.O. BOX 30080", "alternate_names": ["Honolulu", "Honolulu FDC"], "source": "federal", "state": "HI", "organization": "FDC Honolulu", "identifier": "HON"},
{"city": "Herlong", "zip": "96113", "url": "http://www.bop.gov/PublicInfo/execute/phyloc?todo=query&output=json&code=HER", "address1": "P.O. BOX 800", "alternate_names": ["Herlong", "Herlong FCI"], "source": "federal", "state": "CA", "organization": "FCI Herlong", "identifier": "HER"},
{"city": "Catano", "zip": "00963", "url": "http://www.bop.gov/PublicInfo/execute/phyloc?todo=query&output=json&code=GUA", "address1": "P.O. BOX 2005", "alternate_names": ["Guaynabo", "Guaynabo MDC"], "source": "federal", "state": "PR", "organization": "MDC Guaynabo", "identifier": "GUA"},
{"city": "Greenville", "zip": "62246", "url": "http://www.bop.gov/PublicInfo/execute/phyloc?todo=query&output=json&code=GRE", "address1": "P.O. BOX 5000", "alternate_names": ["Greenville", "Greenville FCI"], "source": "federal", "state": "IL", "organization": "FCI Greenville", "identifier": "GRE"},
{"city": "Oakdale", "zip": "71463", "url": "http://www.bop.gov/PublicInfo/execute/phyloc?todo=query&output=json&code=OAK", "address1": "P.O. BOX 5000", "alternate_names": ["Oakdale I", "Oakdale I FCI"], "source": "federal", "state": "LA", "organization": "FCI Oakdale I", "identifier": "OAK"},
{"city": "Oakdale", "zip": "71463", "url": "http://www.bop.gov/PublicInfo/execute/phyloc?todo=query&output=json&code=OAD", "address1": "P.O. BOX 5010", "alternate_names": ["Oakdale II", "Oakdale II FCI"], "source": "federal", "state": "LA", "organization": "FCI Oakdale II", "identifier": "OAD"},
{"city": "Petersburg", "zip": "23804", "url": "http://www.bop.gov/PublicInfo/execute/phyloc?todo=query&output=json&code=PET", "address1": "P.O. BOX 1000", "alternate_names": ["Petersburg Low", "Petersburg Low FCI"], "source": "federal", "state": "VA", "organization": "FCI Petersburg Low", "identifier": "PET"},
{"city": "Petersburg", "zip": "23804", "url": "http://www.bop.gov/PublicInfo/execute/phyloc?todo=query&output=json&code=PEM", "address1": "P.O. BOX 1000", "alternate_names": ["Petersburg Medium", "Petersburg Medium FCI"], "source": "federal", "state": "VA", "organization": "FCI Petersburg Medium", "identifier": "PEM"},
{"city": "Glenville", "zip": "26351", "url": "http://www.bop.gov/PublicInfo/execute/phyloc?todo=query&output=json&code=GIL", "address1": "P.O. BOX 6000", "alternate_names": ["Gilmer", "Gilmer FCI"], "source": "federal", "state": "WV", "organization": "FCI Gilmer", "identifier": "GIL"},
{"city": "Post", "zip": "79356", "url": "http://www.bop.gov/PublicInfo/execute/phyloc?todo=query&output=json&code=DAL", "address1": "805 NORTH AVENUE F", "alternate_names": ["Giles W. Dalby", "Giles W. Dalby CI"], "source": "federal", "state": "TX", "organization": "CI Giles W. Dalby", "identifier": "DAL"},
{"city": "Fort Worth", "zip": "76119", "url": "http://www.bop.gov/PublicInfo/execute/phyloc?todo=query&output=json&code=FTW", "address1": "P.O. BOX 15330", "alternate_names": ["Fort Worth", "Fort Worth FCI"], "source": "federal", "state": "TX", "organization": "FCI Fort Worth", "identifier": "FTW"},
{"city": "Fort Dix", "zip": "08640", "url": "http://www.bop.gov/PublicInfo/execute/phyloc?todo=query&output=json&code=FTD", "address1": "P.O. BOX 2000", "alternate_names": ["Fort Dix", "Fort Dix FCI"], "source": "federal", "state": "NJ", "organization": "FCI Fort Dix", "identifier": "FTD"},
{"city": "Fairton", "zip": "08320", "url": "http://www.bop.gov/PublicInfo/execute/phyloc?todo=query&output=json&code=FAI", "address1": "P.O. BOX 420", "alternate_names": ["Fairton", "Fairton FCI"], "source": "federal", "state": "NJ", "organization": "FCI Fairton", "identifier": "FAI"},
{"city": "Estill", "zip": "29918", "url": "http://www.bop.gov/PublicInfo/execute/phyloc?todo=query&output=json&code=EST", "address1": "P.O. BOX 699", "alternate_names": ["Estill", "Estill FCI"], "source": "federal", "state": "SC", "organization": "FCI Estill", "identifier": "EST"},
{"city": "Littleton", "zip": "80123", "url": "http://www.bop.gov/PublicInfo/execute/phyloc?todo=query&output=json&code=ENG", "address1": "9595 WEST QUINCY AVENUE", "alternate_names": ["Englewood", "Englewood FCI"], "source": "federal", "state": "CO", "organization": "FCI Englewood", "identifier": "ENG"},
{"city": "Lisbon", "zip": "44432", "url": "http://www.bop.gov/PublicInfo/execute/phyloc?todo=query&output=json&code=ELK", "address1": "P.O. BOX 10", "alternate_names": ["Elkton", "Elkton FCI"], "source": "federal", "state": "OH", "organization": "FCI Elkton", "identifier": "ELK"},
{"city": "Chicago", "zip": "60605", "url": "http://www.bop.gov/PublicInfo/execute/phyloc?todo=query&output=json&code=CCC", "address1": "71 WEST VAN BUREN STREET", "alternate_names": ["Chicago", "Chicago MCC"], "source": "federal", "state": "IL", "organization": "MCC Chicago", "identifier": "CCC"},
{"city": "Fort Worth", "zip": "76127", "url": "http://www.bop.gov/PublicInfo/execute/phyloc?todo=query&output=json&code=CRW", "address1": "P.O. BOX 27137", "alternate_names": ["Carswell", "Carswell FMC"], "source": "federal", "state": "TX", "organization": "FMC Carswell", "identifier": "CRW"},
{"city": "Waymart", "zip": "18472", "url": "http://www.bop.gov/PublicInfo/execute/phyloc?todo=query&output=json&code=CAA", "address1": "P.O. BOX 300", "alternate_names": ["Canaan", "Canaan USP"], "source": "federal", "state": "PA", "organization": "USP Canaan", "identifier": "CAA"},
{"city": "Bryan", "zip": "77805", "url": "http://www.bop.gov/PublicInfo/execute/phyloc?todo=query&output=json&code=BRY", "address1": "P.O. BOX 2149", "alternate_names": ["Bryan", "Bryan FPC"], "source": "federal", "state": "TX", "organization": "FPC Bryan", "identifier": "BRY"},
{"city": "Brooklyn", "zip": "11232", "url": "http://www.bop.gov/PublicInfo/execute/phyloc?todo=query&output=json&code=BRO", "address1": "P.O. BOX 329002", "alternate_names": ["Brooklyn", "Brooklyn MDC"], "source": "federal", "state": "NY", "organization": "MDC Brooklyn", "identifier": "BRO"},
{"city": "Big Spring", "zip": "79720", "url": "http://www.bop.gov/PublicInfo/execute/phyloc?todo=query&output=json&code=BIG", "address1": "1900 SIMLER AVE", "alternate_names": ["Big Spring", "Big Spring FCI"], "source": "federal", "state": "TX", "organization": "FCI Big Spring", "identifier": "BIG"},
{"city": "Big Spring", "zip": "79720", "url": "http://www.bop.gov/PublicInfo/execute/phyloc?todo=query&output=json&code=BSC", "address1": "2001 RICKABAUGH DR", "alternate_names": ["Big Spring", "Big Spring CI"], "source": "federal", "state": "TX", "organization": "CI Big Spring", "identifier": "BSC"},
{"city": "Inez", "zip": "41224", "url": "http://www.bop.gov/PublicInfo/execute/phyloc?todo=query&output=json&code=BSY", "address1": "P.O. BOX 2068", "alternate_names": ["Big Sandy", "Big Sandy USP"], "source": "federal", "state": "KY", "organization": "USP Big Sandy", "identifier": "BSY"},
{"city": "Berlin", "zip": "03570", "url": "http://www.bop.gov/PublicInfo/execute/phyloc?todo=query&output=json&code=BER", "address1": "P.O. BOX 9000", "alternate_names": ["Berlin", "Berlin FCI"], "source": "federal", "state": "NH", "organization": "FCI Berlin", "identifier": "BER"},
{"city": "Bennettsville", "zip": "29512", "url": "http://www.bop.gov/PublicInfo/execute/phyloc?todo=query&output=json&code=BEN", "address1": "P.O. BOX 52020", "alternate_names": ["Bennettsville", "Bennettsville FCI"], "source": "federal", "state": "SC", "organization": "FCI Bennettsville", "identifier": "BEN"},
{"city": "Beaver", "zip": "25813", "url": "http://www.bop.gov/PublicInfo/execute/phyloc?todo=query&output=json&code=BEC", "address1": "P.O. BOX 350", "alternate_names": ["Beckley", "Beckley FCI"], "source": "federal", "state": "WV", "organization": "FCI Beckley", "identifier": "BEC"},
{"city": "Bastrop", "zip": "78602", "url": "http://www.bop.gov/PublicInfo/execute/phyloc?todo=query&output=json&code=BAS", "address1": "P.O. BOX 1010", "alternate_names": ["Bastrop", "Bastrop FCI"], "source": "federal", "state": "TX", "organization": "FCI Bastrop", "identifier": "BAS"},
{"city": "Annapolis Junct", "zip": "20701", "url": "http://www.bop.gov/PublicInfo/execute/phyloc?todo=query&output=json&code=CBR", "address1": "302 SENTINEL DRIVE,SUITE 200", "alternate_names": ["Baltimore", "Baltimore RRM"], "source": "federal", "state": "MD", "organization": "RRM Baltimore", "identifier": "CBR"},
{"city": "Atwater", "zip": "95301", "url": "http://www.bop.gov/PublicInfo/execute/phyloc?todo=query&output=json&code=ATW", "address1": "P.O. BOX 019001", "alternate_names": ["Atwater", "Atwater USP"], "source": "federal", "state": "CA", "organization": "USP Atwater", "identifier": "ATW"},
{"city": "Atlanta", "zip": "30315", "url": "http://www.bop.gov/PublicInfo/execute/phyloc?todo=query&output=json&code=ATL", "address1": "P.O. BOX 150160", "alternate_names": ["Atlanta", "Atlanta USP"], "source": "federal", "state": "GA", "organization": "USP Atlanta", "identifier": "ATL"},
{"city": "Atlanta", "zip": "30315", "url": "http://www.bop.gov/PublicInfo/execute/phyloc?todo=query&output=json&code=CAT", "address1": "719 MCDONOUGH BLVD S.E.", "alternate_names": ["Atlanta", "Atlanta RRM"], "source": "federal", "state": "GA", "organization": "RRM Atlanta", "identifier": "CAT"},
{"city": "Bruceton Mills", "zip": "26525", "url": "http://www.bop.gov/PublicInfo/execute/phyloc?todo=query&output=json&code=HAZ", "address1": "P.O. BOX 2000", "alternate_names": ["Hazelton", "Hazelton USP"], "source": "federal", "state": "WV", "organization": "USP Hazelton", "identifier": "HAZ"},
{"city": "Bruceton Mills", "zip": "26525", "url": "http://www.bop.gov/PublicInfo/execute/phyloc?todo=query&output=json&code=HAF", "address1": "P.O. BOX 5000", "alternate_names": ["Hazelton", "Hazelton FCI"], "source": "federal", "state": "WV", "organization": "FCI Hazelton", "identifier": "HAF"},
{"city": "Ashland", "zip": "41105", "url": "http://www.bop.gov/PublicInfo/execute/phyloc?todo=query&output=json&code=ASH", "address1": "P.O. BOX 6001", "alternate_names": ["Ashland", "Ashland FCI"], "source": "federal", "state": "KY", "organization": "FCI Ashland", "identifier": "ASH"},
{"city": "Aliceville", "zip": "35442", "url": "http://www.bop.gov/PublicInfo/execute/phyloc?todo=query&output=json&code=ALI", "address1": "P.O.BOX 4000", "alternate_names": ["Aliceville", "Aliceville FCI"], "source": "federal", "state": "AL", "organization": "FCI Aliceville", "identifier": "ALI"},
{"city": "Alderson", "zip": "24910", "url": "http://www.bop.gov/PublicInfo/execute/phyloc?todo=query&output=json&code=ALD", "address1": "GLEN RAY RD. BOX A", "alternate_names": ["Alderson", "Alderson FPC"], "source": "federal", "state": "WV", "organization": "FPC Alderson", "identifier": "ALD"},
{"city": "Washington", "zip": "39190", "url": "http://www.bop.gov/PublicInfo/execute/phyloc?todo=query&output=json&code=ACC", "address1": "P.O. BOX 1600", "alternate_names": ["Adams County", "Adams County CI"], "source": "federal", "state": "MS", "organization": "CI Adams County", "identifier": "ACC"},
{"city": "Florence", "zip": "81226", "url": "http://www.bop.gov/PublicInfo/execute/phyloc?todo=query&output=json&code=FLP", "address1": "P.O. BOX 7000", "alternate_names": ["Florence - High", "Florence - High USP"], "source": "federal", "state": "CO", "organization": "USP Florence - High", "identifier": "FLP"},
{"city": "Florence", "zip": "81226", "url": "http://www.bop.gov/PublicInfo/execute/phyloc?todo=query&output=json&code=FLM", "address1": "PO BOX 8500", "alternate_names": ["Florence  ADMAX", "Florence  ADMAX USP"], "source": "federal", "state": "CO", "organization": "USP Florence  ADMAX", "identifier": "FLM"},
{"city": "Florence", "zip": "81226", "url": "http://www.bop.gov/PublicInfo/execute/phyloc?todo=query&output=json&code=FLF", "address1": "PO BOX 6000", "alternate_names": ["Florence", "Florence FCI"], "source": "federal", "state": "CO", "organization": "FCI Florence", "identifier": "FLF"},
{"city": "Forrest City", "zip": "72336", "url": "http://www.bop.gov/PublicInfo/execute/phyloc?todo=query&output=json&code=FOR", "address1": "P.O. BOX 9000", "alternate_names": ["Forrest City Low", "Forrest City Low FCI"], "source": "federal", "state": "AR", "organization": "FCI Forrest City Low", "identifier": "FOR"},
{"city": "Forrest City", "zip": "72336", "url": "http://www.bop.gov/PublicInfo/execute/phyloc?todo=query&output=json&code=FOM", "address1": "PO BOX 3000", "alternate_names": ["Forrest City Medium", "Forrest City Medium FCI"], "source": "federal", "state": "AR", "organization": "FCI Forrest City Medium", "identifier": "FOM"},
{"city": "Beaumont", "zip": "77720", "url": "http://www.bop.gov/PublicInfo/execute/phyloc?todo=query&output=json&code=BMP", "address1": "P. O. BOX 26030", "alternate_names": ["Beaumont", "Beaumont USP"], "source": "federal", "state": "TX", "organization": "USP Beaumont", "identifier": "BMP"},
{"city": "Beaumont", "zip": "77720", "url": "http://www.bop.gov/PublicInfo/execute/phyloc?todo=query&output=json&code=BMM", "address1": "P.O. BOX 26040", "alternate_names": ["Beaumont Medium", "Beaumont Medium FCI"], "source": "federal", "state": "TX", "organization": "FCI Beaumont Medium", "identifier": "BMM"},
{"city": "Beaumont", "zip": "77720", "url": "http://www.bop.gov/PublicInfo/execute/phyloc?todo=query&output=json&code=BML", "address1": "P.O. BOX 26020", "alternate_names": ["Beaumont Low", "Beaumont Low FCI"], "source": "federal", "state": "TX", "organization": "FCI Beaumont Low", "identifier": "BML"},
{"city": "Butner", "zip": "27509", "url": "http://www.bop.gov/PublicInfo/execute/phyloc?todo=query&output=json&code=BUT", "address1": "P.O. BOX 1000", "alternate_names": ["Butner Medium I", "Butner Medium I FCI"], "source": "federal", "state": "NC", "organization": "FCI Butner Medium I", "identifier": "BUT"},
{"city": "Butner", "zip": "27509", "url": "http://www.bop.gov/PublicInfo/execute/phyloc?todo=query&output=json&code=BUH", "address1": "P.O. BOX 1600", "alternate_names": ["Butner", "Butner FMC"], "source": "federal", "state": "NC", "organization": "FMC Butner", "identifier": "BUH"},
{"city": "Butner", "zip": "27509", "url": "http://www.bop.gov/PublicInfo/execute/phyloc?todo=query&output=json&code=BUF", "address1": "P.O. BOX 999", "alternate_names": ["Butner Low", "Butner Low FCI"], "source": "federal", "state": "NC", "organization": "FCI Butner Low", "identifier": "BUF"},
{"city": "Butner", "zip": "27509", "url": "http://www.bop.gov/PublicInfo/execute/phyloc?todo=query&output=json&code=BTF", "address1": "P.O. BOX 1500", "alternate_names": ["Butner Medium II", "Butner Medium II FCI"], "source": "federal", "state": "NC", "organization": "FCI Butner Medium II", "identifier": "BTF"},
{"city": "White Deer", "zip": "17887", "url": "http://www.bop.gov/PublicInfo/execute/phyloc?todo=query&output=json&code=ALP", "address1": "P.O. BOX 3000", "alternate_names": ["Allenwood", "Allenwood USP"], "source": "federal", "state": "PA", "organization": "USP Allenwood", "identifier": "ALP"},
{"city": "White Deer", "zip": "17887", "url": "http://www.bop.gov/PublicInfo/execute/phyloc?todo=query&output=json&code=ALM", "address1": "P.O. BOX 2000", "alternate_names": ["Allenwood Medium", "Allenwood Medium FCI"], "source": "federal", "state": "PA", "organization": "FCI Allenwood Medium", "identifier": "ALM"},
{"city": "White Deer", "zip": "17887", "url": "http://www.bop.gov/PublicInfo/execute/phyloc?todo=query&output=json&code=ALF", "address1": "P.O. BOX 1000", "alternate_names": ["Allenwood Low", "Allenwood Low FCI"], "source": "federal", "state": "PA", "organization": "FCI Allenwood Low", "identifier": "ALF"}]