[{"city": "Aliceville", "zip": "35442", "url": "http://www.bop.gov/PublicInfo/execute/phyloc?todo=query&output=json&code=ALI", "address1": "P.O.BOX 4000", "state": "AL", "organization": "FCI Aliceville", "identifier": "ALI"},
{"city": "Alderson", "zip": "24910", "url": "http://www.bop.gov/PublicInfo/execute/phyloc?todo=query&output=json&code=ALD", "address1": "GLEN RAY RD. BOX A", "state": "WV", "organization": "FPC Alderson", "identifier": "ALD"},
{"city": "Lexington", "zip": "40512", "url": "http://www.bop.gov/PublicInfo/execute/phyloc?todo=query&output=json&code=LEX", "address1": "P.O. BOX 14500", "state": "KY", "organization": "FMC Lexington", "identifier": "LEX"},
{"city": "Lewisburg", "zip": "17837", "url": "http://www.bop.gov/PublicInfo/execute/phyloc?todo=query&output=json&code=LEW", "address1": "P.O. BOX 1000", "state": "PA", "organization": "USP Lewisburg", "identifier": "LEW"},
{"city": "Jonesville", "zip": "24263", "url": "http://www.bop.gov/PublicInfo/execute/phyloc?todo=query&output=json&code=LEE", "address1": "P.O. BOX 305", "state": "VA", "organization": "USP Lee", "identifier": "LEE"},
{"city": "Leavenworth", "zip": "66048", "url": "http://www.bop.gov/PublicInfo/execute/phyloc?todo=query&output=json&code=LVN", "address1": "P.O. BOX 1000", "state": "KS", "organization": "USP Leavenworth", "identifier": "LVN"},
{"city": "Anthony", "zip": "88021", "url": "http://www.bop.gov/PublicInfo/execute/phyloc?todo=query&output=json&code=LAT", "address1": "P.O. BOX 6000", "state": "TX", "organization": "FCI La Tuna", "identifier": "LAT"},
{"city": "Jesup", "zip": "31599", "url": "http://www.bop.gov/PublicInfo/execute/phyloc?todo=query&output=json&code=JES", "address1": "2680 301 SOUTH", "state": "GA", "organization": "FCI Jesup", "identifier": "JES"},
{"city": "Houston", "zip": "77052", "url": "http://www.bop.gov/PublicInfo/execute/phyloc?todo=query&output=json&code=HOU", "address1": "P.O. BOX 526255", "state": "TX", "organization": "FDC Houston", "identifier": "HOU"},
{"city": "Honolulu", "zip": "96820", "url": "http://www.bop.gov/PublicInfo/execute/phyloc?todo=query&output=json&code=HON", "address1": "P.O. BOX 30080", "state": "HI", "organization": "FDC Honolulu", "identifier": "HON"},
{"city": "Herlong", "zip": "96113", "url": "http://www.bop.gov/PublicInfo/execute/phyloc?todo=query&output=json&code=HER", "address1": "P.O. BOX 800", "state": "CA", "organization": "FCI Herlong", "identifier": "HER"},
{"city": "Catano", "zip": "00963", "url": "http://www.bop.gov/PublicInfo/execute/phyloc?todo=query&output=json&code=GUA", "address1": "P.O. BOX 2005", "state": "PR", "organization": "MDC Guaynabo", "identifier": "GUA"},
{"city": "Greenville", "zip": "62246", "url": "http://www.bop.gov/PublicInfo/execute/phyloc?todo=query&output=json&code=GRE", "address1": "P.O. BOX 5000", "state": "IL", "organization": "FCI Greenville", "identifier": "GRE"},
{"city": "Glenville", "zip": "26351", "url": "http://www.bop.gov/PublicInfo/execute/phyloc?todo=query&output=json&code=GIL", "address1": "P.O. BOX 6000", "state": "WV", "organization": "FCI Gilmer", "identifier": "GIL"},
{"city": "Fort Worth", "zip": "76119", "url": "http://www.bop.gov/PublicInfo/execute/phyloc?todo=query&output=json&code=FTW", "address1": "P.O. BOX 15330", "state": "TX", "organization": "FCI Fort Worth", "identifier": "FTW"},
{"city": "Fort Dix", "zip": "08640", "url": "http://www.bop.gov/PublicInfo/execute/phyloc?todo=query&output=json&code=FTD", "address1": "P.O. BOX 2000", "state": "NJ", "organization": "FCI Fort Dix", "identifier": "FTD"},
{"city": "Sheridan", "zip": "97378", "url": "http://www.bop.gov/PublicInfo/execute/phyloc?todo=query&output=json&code=SHE", "address1": "P.O. BOX 5000", "state": "OR", "organization": "FCI Sheridan", "identifier": "SHE"},
{"city": "Seattle", "zip": "98198", "url": "http://www.bop.gov/PublicInfo/execute/phyloc?todo=query&output=json&code=SET", "address1": "P.O. BOX 13900", "state": "WA", "organization": "FDC SeaTac", "identifier": "SET"},
{"city": "Seagoville", "zip": "75159", "url": "http://www.bop.gov/PublicInfo/execute/phyloc?todo=query&output=json&code=SEA", "address1": "P.O. BOX 9000", "state": "TX", "organization": "FCI Seagoville", "identifier": "SEA"},
{"city": "Minersville", "zip": "17954", "url": "http://www.bop.gov/PublicInfo/execute/phyloc?todo=query&output=json&code=SCH", "address1": "P.O. BOX 759", "state": "PA", "organization": "FCI Schuylkill", "identifier": "SCH"},
{"city": "Sandstone", "zip": "55072", "url": "http://www.bop.gov/PublicInfo/execute/phyloc?todo=query&output=json&code=SST", "address1": "P.O. BOX 1000", "state": "MN", "organization": "FCI Sandstone", "identifier": "SST"},
{"city": "San Diego", "zip": "92101", "url": "http://www.bop.gov/PublicInfo/execute/phyloc?todo=query&output=json&code=SDC", "address1": "808 UNION STREET", "state": "CA", "organization": "MCC San Diego", "identifier": "SDC"},
{"city": "Safford", "zip": "85548", "url": "http://www.bop.gov/PublicInfo/execute/phyloc?todo=query&output=json&code=SAF", "address1": "P.O. BOX 9000", "state": "AZ", "organization": "FCI Safford", "identifier": "SAF"},
{"city": "Rochester", "zip": "55903", "url": "http://www.bop.gov/PublicInfo/execute/phyloc?todo=query&output=json&code=RCH", "address1": "P.O. BOX 4000", "state": "MN", "organization": "FMC Rochester", "identifier": "RCH"},
{"city": "Ray Brook", "zip": "12977", "url": "http://www.bop.gov/PublicInfo/execute/phyloc?todo=query&output=json&code=RBK", "address1": "P.O. BOX 900", "state": "NY", "organization": "FCI Ray Brook", "identifier": "RBK"},
{"city": "Phoenix", "zip": "85086", "url": "http://www.bop.gov/PublicInfo/execute/phyloc?todo=query&output=json&code=PHX", "address1": "37910 N 45TH AVE", "state": "AZ", "organization": "FCI Phoenix", "identifier": "PHX"},
{"city": "Philadelphia", "zip": "19105", "url": "http://www.bop.gov/PublicInfo/execute/phyloc?todo=query&output=json&code=PHL", "address1": "P.O. BOX 562", "state": "PA", "organization": "FDC Philadelphia", "identifier": "PHL"},
{"city": "Pensacola", "zip": "32516", "url": "http://www.bop.gov/PublicInfo/execute/phyloc?todo=query&output=json&code=PEN", "address1": "P.O. BOX 3949", "state": "FL", "organization": "FPC Pensacola", "identifier": "PEN"},
{"city": "Pekin", "zip": "61555", "url": "http://www.bop.gov/PublicInfo/execute/phyloc?todo=query&output=json&code=PEK", "address1": "P.O. BOX 5000", "state": "IL", "organization": "FCI Pekin", "identifier": "PEK"},
{"city": "Oxford", "zip": "53952", "url": "http://www.bop.gov/PublicInfo/execute/phyloc?todo=query&output=json&code=OXF", "address1": "P.O. BOX 1000", "state": "WI", "organization": "FCI Oxford", "identifier": "OXF"},
{"city": "Yankton", "zip": "57078", "url": "http://www.bop.gov/PublicInfo/execute/phyloc?todo=query&output=json&code=YAN", "address1": "P.O. BOX 700", "state": "SD", "organization": "FPC Yankton", "identifier": "YAN"},
{"city": "Salters", "zip": "29590", "url": "http://www.bop.gov/PublicInfo/execute/phyloc?todo=query&output=json&code=WIL", "address1": "P.O. BOX 340", "state": "SC", "organization": "FCI Williamsburg", "identifier": "WIL"},
{"city": "Waseca", "zip": "56093", "url": "http://www.bop.gov/PublicInfo/execute/phyloc?todo=query&output=json&code=WAS", "address1": "P.O. BOX 1731", "state": "MN", "organization": "FCI Waseca", "identifier": "WAS"},
{"city": "Three Rivers", "zip": "78071", "url": "http://www.bop.gov/PublicInfo/execute/phyloc?todo=query&output=json&code=TRV", "address1": "P.O. BOX 4200", "state": "TX", "organization": "FCI Three Rivers", "identifier": "TRV"},
{"city": "Texarkana", "zip": "75505", "url": "http://www.bop.gov/PublicInfo/execute/phyloc?todo=query&output=json&code=TEX", "address1": "P.O. BOX 7000", "state": "TX", "organization": "FCI Texarkana", "identifier": "TEX"},
{"city": "San Pedro", "zip": "90731", "url": "http://www.bop.gov/PublicInfo/execute/phyloc?todo=query&output=json&code=TRM", "address1": "PO BOX 3007", "state": "CA", "organization": "FCI Terminal Island", "identifier": "TRM"},
{"city": "Tallahassee", "zip": "32301", "url": "http://www.bop.gov/PublicInfo/execute/phyloc?todo=query&output=json&code=TAL", "address1": "501 CAPITAL CIRCLE, NE", "state": "FL", "organization": "FCI Tallahassee", "identifier": "TAL"},
{"city": "Talladega", "zip": "35160", "url": "http://www.bop.gov/PublicInfo/execute/phyloc?todo=query&output=json&code=TDG", "address1": "P.M.B 1000", "state": "AL", "organization": "FCI Talladega", "identifier": "TDG"},
{"city": "Springfield", "zip": "65801", "url": "http://www.bop.gov/PublicInfo/execute/phyloc?todo=query&output=json&code=SPG", "address1": "P.O. BOX 4000", "state": "MO", "organization": "MCFP Springfield", "identifier": "SPG"},
{"city": "Otisville", "zip": "10963", "url": "http://www.bop.gov/PublicInfo/execute/phyloc?todo=query&output=json&code=OTV", "address1": "P.O. BOX  1000", "state": "NY", "organization": "FCI Otisville", "identifier": "OTV"},
{"city": "Oklahoma City", "zip": "73189", "url": "http://www.bop.gov/PublicInfo/execute/phyloc?todo=query&output=json&code=OKL", "address1": "P.O. BOX 898801", "state": "OK", "organization": "FTC Oklahoma City", "identifier": "OKL"},
{"city": "Forrest City", "zip": "72336", "url": "http://www.bop.gov/PublicInfo/execute/phyloc?todo=query&output=json&code=FOR", "address1": "P.O. BOX 9000", "state": "AR", "organization": "FCI Forrest City Low", "identifier": "FOR"},
{"city": "Forrest City", "zip": "72336", "url": "http://www.bop.gov/PublicInfo/execute/phyloc?todo=query&output=json&code=FOM", "address1": "PO BOX 3000", "state": "AR", "organization": "FCI Forrest City Medium", "identifier": "FOM"},
{"city": "Bruceton Mills", "zip": "26525", "url": "http://www.bop.gov/PublicInfo/execute/phyloc?todo=query&output=json&code=HAZ", "address1": "P.O. BOX 2000", "state": "WV", "organization": "USP Hazelton", "identifier": "HAZ"},
{"city": "Bruceton Mills", "zip": "26525", "url": "http://www.bop.gov/PublicInfo/execute/phyloc?todo=query&output=json&code=HAF", "address1": "P.O. BOX 5000", "state": "WV", "organization": "FCI Hazelton", "identifier": "HAF"},
{"city": "New York", "zip": "10007", "url": "http://www.bop.gov/PublicInfo/execute/phyloc?todo=query&output=json&code=NYM", "address1": "150 PARK ROW", "state": "NY", "organization": "MCC New York", "identifier": "NYM"},
{"city": "Morgantown", "zip": "26507", "url": "http://www.bop.gov/PublicInfo/execute/phyloc?todo=query&output=json&code=MRG", "address1": "P.O. BOX 1000", "state": "WV", "organization": "FCI Morgantown", "identifier": "MRG"},
{"city": "Montgomery", "zip": "36112", "url": "http://www.bop.gov/PublicInfo/execute/phyloc?todo=query&output=json&code=MON", "address1": "MAXWELL AIR FORCE BASE", "state": "AL", "organization": "FPC Montgomery", "identifier": "MON"},
{"city": "Milan", "zip": "48160", "url": "http://www.bop.gov/PublicInfo/execute/phyloc?todo=query&output=json&code=MIL", "address1": "P.O. BOX 1000", "state": "MI", "organization": "FCI Milan", "identifier": "MIL"},
{"city": "Miami", "zip": "33101", "url": "http://www.bop.gov/PublicInfo/execute/phyloc?todo=query&output=json&code=MIM", "address1": "P.O. BOX 019120", "state": "FL", "organization": "FDC Miami", "identifier": "MIM"},
{"city": "Miami", "zip": "33177", "url": "http://www.bop.gov/PublicInfo/execute/phyloc?todo=query&output=json&code=MIA", "address1": "P.O. BOX 779800", "state": "FL", "organization": "FCI Miami", "identifier": "MIA"},
{"city": "Mendota", "zip": "93640", "url": "http://www.bop.gov/PublicInfo/execute/phyloc?todo=query&output=json&code=MEN", "address1": "P.O. BOX 9", "state": "CA", "organization": "FCI Mendota", "identifier": "MEN"},
{"city": "Memphis", "zip": "38184", "url": "http://www.bop.gov/PublicInfo/execute/phyloc?todo=query&output=json&code=MEM", "address1": "P.O, BOX 34550", "state": "TN", "organization": "FCI Memphis", "identifier": "MEM"},
{"city": "Bradford", "zip": "16701", "url": "http://www.bop.gov/PublicInfo/execute/phyloc?todo=query&output=json&code=MCK", "address1": "P.O. BOX 8000", "state": "PA", "organization": "FCI McKean", "identifier": "MCK"},
{"city": "Welch", "zip": "24801", "url": "http://www.bop.gov/PublicInfo/execute/phyloc?todo=query&output=json&code=MCD", "address1": "P.O.BOX 1009", "state": "WV", "organization": "FCI McDowell", "identifier": "MCD"},
{"city": "Pine Knot", "zip": "42635", "url": "http://www.bop.gov/PublicInfo/execute/phyloc?todo=query&output=json&code=MCR", "address1": "P.O. BOX 3000", "state": "KY", "organization": "USP McCreary", "identifier": "MCR"},
{"city": "Marion", "zip": "62959", "url": "http://www.bop.gov/PublicInfo/execute/phyloc?todo=query&output=json&code=MAR", "address1": "P.O. BOX 1000", "state": "IL", "organization": "USP Marion", "identifier": "MAR"},
{"city": "Petersburg", "zip": "23804", "url": "http://www.bop.gov/PublicInfo/execute/phyloc?todo=query&output=json&code=PET", "address1": "P.O. BOX 1000", "state": "VA", "organization": "FCI Petersburg Low", "identifier": "PET"},
{"city": "Petersburg", "zip": "23804", "url": "http://www.bop.gov/PublicInfo/execute/phyloc?todo=query&output=json&code=PEM", "address1": "P.O. BOX 1000", "state": "VA", "organization": "FCI Petersburg Medium", "identifier": "PEM"},
{"city": "Pollock", "zip": "71467", "url": "http://www.bop.gov/PublicInfo/execute/phyloc?todo=query&output=json&code=POM", "address1": "P.O. BOX 4050", "state": "LA", "organization": "FCI Pollock", "identifier": "POM"},
{"city": "Pollock", "zip": "71467", "url": "http://www.bop.gov/PublicInfo/execute/phyloc?todo=query&output=json&code=POL", "address1": "P.O. BOX 2099", "state": "LA", "organization": "USP Pollock", "identifier": "POL"},
{"city": "Marianna", "zip": "32447", "url": "http://www.bop.gov/PublicInfo/execute/phyloc?todo=query&output=json&code=MNA", "address1": "P.O. BOX 7007", "state": "FL", "organization": "FCI Marianna", "identifier": "MNA"},
{"city": "Manchester", "zip": "40962", "url": "http://www.bop.gov/PublicInfo/execute/phyloc?todo=query&output=json&code=MAN", "address1": "P.O. BOX 4000", "state": "KY", "organization": "FCI Manchester", "identifier": "MAN"},
{"city": "Los Angeles", "zip": "90053", "url": "http://www.bop.gov/PublicInfo/execute/phyloc?todo=query&output=json&code=LOS", "address1": "P.O. BOX 1500", "state": "CA", "organization": "MDC Los Angeles", "identifier": "LOS"},
{"city": "Loretto", "zip": "15940", "url": "http://www.bop.gov/PublicInfo/execute/phyloc?todo=query&output=json&code=LOR", "address1": "P.O. BOX 1000", "state": "PA", "organization": "FCI Loretto", "identifier": "LOR"},
{"city": "Fairton", "zip": "08320", "url": "http://www.bop.gov/PublicInfo/execute/phyloc?todo=query&output=json&code=FAI", "address1": "P.O. BOX 420", "state": "NJ", "organization": "FCI Fairton", "identifier": "FAI"},
{"city": "Estill", "zip": "29918", "url": "http://www.bop.gov/PublicInfo/execute/phyloc?todo=query&output=json&code=EST", "address1": "P.O. BOX 699", "state": "SC", "organization": "FCI Estill", "identifier": "EST"},
{"city": "Littleton", "zip": "80123", "url": "http://www.bop.gov/PublicInfo/execute/phyloc?todo=query&output=json&code=ENG", "address1": "9595 WEST QUINCY AVENUE", "state": "CO", "organization": "FCI Englewood", "identifier": "ENG"},
{"city": "Lisbon", "zip": "44432", "url": "http://www.bop.gov/PublicInfo/execute/phyloc?todo=query&output=json&code=ELK", "address1": "P.O. BOX 10", "state": "OH", "organization": "FCI Elkton", "identifier": "ELK"},
{"city": "El Reno", "zip": "73036", "url": "http://www.bop.gov/PublicInfo/execute/phyloc?todo=query&output=json&code=ERE", "address1": "P.O. BOX 1500", "state": "OK", "organization": "FCI El Reno", "identifier": "ERE"},
{"city": "Edgefield", "zip": "29824", "url": "http://www.bop.gov/PublicInfo/execute/phyloc?todo=query&output=json&code=EDG", "address1": "P.O. BOX 725", "state": "SC", "organization": "FCI Edgefield", "identifier": "EDG"},
{"city": "Oakdale", "zip": "71463", "url": "http://www.bop.gov/PublicInfo/execute/phyloc?todo=query&output=json&code=OAK", "address1": "P.O. BOX 5000", "state": "LA", "organization": "FCI Oakdale I", "identifier": "OAK"},
{"city": "Oakdale", "zip": "71463", "url": "http://www.bop.gov/PublicInfo/execute/phyloc?todo=query&output=json&code=OAD", "address1": "P.O. BOX 5010", "state": "LA", "organization": "FCI Oakdale II", "identifier": "OAD"},
{"city": "Terre Haute", "zip": "47808", "url": "http://www.bop.gov/PublicInfo/execute/phyloc?todo=query&output=json&code=THP", "address1": "P.O. BOX 33", "state": "IN", "organization": "USP Terre Haute", "identifier": "THP"},
{"city": "Terre Haute", "zip": "47808", "url": "http://www.bop.gov/PublicInfo/execute/phyloc?todo=query&output=json&code=THA", "address1": "P.O. BOX 33", "state": "IN", "organization": "FCI Terre Haute", "identifier": "THA"},
{"city": "Tucson", "zip": "85734", "url": "http://www.bop.gov/PublicInfo/execute/phyloc?todo=query&output=json&code=TCP", "address1": "P.O. BOX 24550", "state": "AZ", "organization": "USP Tucson", "identifier": "TCP"},
{"city": "Tucson", "zip": "85734", "url": "http://www.bop.gov/PublicInfo/execute/phyloc?todo=query&output=json&code=TCN", "address1": "P.O. BOX 23811", "state": "AZ", "organization": "FCI Tucson", "identifier": "TCN"},
{"city": "Adelanto", "zip": "92301", "url": "http://www.bop.gov/PublicInfo/execute/phyloc?todo=query&output=json&code=VVM", "address1": "PO BOX 3850", "state": "CA", "organization": "FCI Victorville Medium II", "identifier": "VVM"},
{"city": "Adelanto", "zip": "92301", "url": "http://www.bop.gov/PublicInfo/execute/phyloc?todo=query&output=json&code=VIP", "address1": "P.O. BOX 3900", "state": "CA", "organization": "USP Victorville", "identifier": "VIP"},
{"city": "Adelanto", "zip": "92301", "url": "http://www.bop.gov/PublicInfo/execute/phyloc?todo=query&output=json&code=VIM", "address1": "P.O. BOX 3725", "state": "CA", "organization": "FCI Victorville Medium I", "identifier": "VIM"},
{"city": "Yazoo City", "zip": "39194", "url": "http://www.bop.gov/PublicInfo/execute/phyloc?todo=query&output=json&code=YAZ", "address1": "P.O. BOX 5000", "state": "MS", "organization": "FCI Yazoo City Low", "identifier": "YAZ"},
{"city": "Yazoo City", "zip": "39194", "url": "http://www.bop.gov/PublicInfo/execute/phyloc?todo=query&output=json&code=YAP", "address1": "P.O. BOX 5000", "state": "MS", "organization": "USP Yazoo City", "identifier": "YAP"},
{"city": "Yazoo City", "zip": "39194", "url": "http://www.bop.gov/PublicInfo/execute/phyloc?todo=query&output=json&code=YAM", "address1": "P.O. BOX 5888", "state": "MS", "organization": "FCI Yazoo City Medium", "identifier": "YAM"},
{"city": "Duluth", "zip": "55814", "url": "http://www.bop.gov/PublicInfo/execute/phyloc?todo=query&output=json&code=DTH", "address1": "P.O. BOX 1000", "state": "MN", "organization": "FPC Duluth", "identifier": "DTH"},
{"city": "Dublin", "zip": "94568", "url": "http://www.bop.gov/PublicInfo/execute/phyloc?todo=query&output=json&code=DUB", "address1": "5701 8TH ST - CAMP PARKS", "state": "CA", "organization": "FCI Dublin", "identifier": "DUB"},
{"city": "Ayer", "zip": "01432", "url": "http://www.bop.gov/PublicInfo/execute/phyloc?todo=query&output=json&code=DEV", "address1": "P.O. BOX 879", "state": "MA", "organization": "FMC Devens", "identifier": "DEV"},
{"city": "Danbury", "zip": "06811", "url": "http://www.bop.gov/PublicInfo/execute/phyloc?todo=query&output=json&code=DAN", "address1": "ROUTE 37", "state": "CT", "organization": "FCI Danbury", "identifier": "DAN"},
{"city": "Cumberland", "zip": "21501", "url": "http://www.bop.gov/PublicInfo/execute/phyloc?todo=query&output=json&code=CUM", "address1": "P.O. BOX 1000", "state": "MD", "organization": "FCI Cumberland", "identifier": "CUM"},
{"city": "Chicago", "zip": "60605", "url": "http://www.bop.gov/PublicInfo/execute/phyloc?todo=query&output=json&code=CCC", "address1": "71 WEST VAN BUREN STREET", "state": "IL", "organization": "MCC Chicago", "identifier": "CCC"},
{"city": "Fort Worth", "zip": "76127", "url": "http://www.bop.gov/PublicInfo/execute/phyloc?todo=query&output=json&code=CRW", "address1": "P.O. BOX 27137", "state": "TX", "organization": "FMC Carswell", "identifier": "CRW"},
{"city": "Waymart", "zip": "18472", "url": "http://www.bop.gov/PublicInfo/execute/phyloc?todo=query&output=json&code=CAA", "address1": "P.O. BOX 300", "state": "PA", "organization": "USP Canaan", "identifier": "CAA"},
{"city": "Bryan", "zip": "77805", "url": "http://www.bop.gov/PublicInfo/execute/phyloc?todo=query&output=json&code=BRY", "address1": "P.O. BOX 2149", "state": "TX", "organization": "FPC Bryan", "identifier": "BRY"},
{"city": "Florence", "zip": "81226", "url": "http://www.bop.gov/PublicInfo/execute/phyloc?todo=query&output=json&code=FLP", "address1": "P.O. BOX 7000", "state": "CO", "organization": "USP Florence - High", "identifier": "FLP"},
{"city": "Florence", "zip": "81226", "url": "http://www.bop.gov/PublicInfo/execute/phyloc?todo=query&output=json&code=FLM", "address1": "PO BOX 8500", "state": "CO", "organization": "USP Florence  ADMAX", "identifier": "FLM"},
{"city": "Florence", "zip": "81226", "url": "http://www.bop.gov/PublicInfo/execute/phyloc?todo=query&output=json&code=FLF", "address1": "PO BOX 6000", "state": "CO", "organization": "FCI Florence", "identifier": "FLF"},
{"city": "Lompoc", "zip": "93436", "url": "http://www.bop.gov/PublicInfo/execute/phyloc?todo=query&output=json&code=LOM", "address1": "3901 KLEIN BLVD", "state": "CA", "organization": "USP Lompoc", "identifier": "LOM"},
{"city": "Lompoc", "zip": "93436", "url": "http://www.bop.gov/PublicInfo/execute/phyloc?todo=query&output=json&code=LOF", "address1": "3600 GUARD ROAD", "state": "CA", "organization": "FCI Lompoc", "identifier": "LOF"},
{"city": "Ashland", "zip": "41105", "url": "http://www.bop.gov/PublicInfo/execute/phyloc?todo=query&output=json&code=ASH", "address1": "P.O. BOX 6001", "state": "KY", "organization": "FCI Ashland", "identifier": "ASH"},
{"city": "Butner", "zip": "27509", "url": "http://www.bop.gov/PublicInfo/execute/phyloc?todo=query&output=json&code=BUT", "address1": "P.O. BOX 1000", "state": "NC", "organization": "FCI Butner Medium I", "identifier": "BUT"},
{"city": "Coleman", "zip": "33521", "url": "http://www.bop.gov/PublicInfo/execute/phyloc?todo=query&output=json&code=COP", "address1": "P.O. BOX 1033", "state": "FL", "organization": "USP Coleman I", "identifier": "COP"},
{"city": "Coleman", "zip": "33521", "url": "http://www.bop.gov/PublicInfo/execute/phyloc?todo=query&output=json&code=COM", "address1": "P.O. BOX 1032", "state": "FL", "organization": "FCI Coleman Medium", "identifier": "COM"},
{"city": "Coleman", "zip": "33521", "url": "http://www.bop.gov/PublicInfo/execute/phyloc?todo=query&output=json&code=COL", "address1": "P.O. BOX 1031", "state": "FL", "organization": "FCI Coleman Low", "identifier": "COL"},
{"city": "Coleman", "zip": "33521", "url": "http://www.bop.gov/PublicInfo/execute/phyloc?todo=query&output=json&code=CLP", "address1": "P.O. BOX 1034", "state": "FL", "organization": "USP Coleman II", "identifier": "CLP"},
{"city": "White Deer", "zip": "17887", "url": "http://www.bop.gov/PublicInfo/execute/phyloc?todo=query&output=json&code=ALP", "address1": "P.O. BOX 3000", "state": "PA", "organization": "USP Allenwood", "identifier": "ALP"},
{"city": "White Deer", "zip": "17887", "url": "http://www.bop.gov/PublicInfo/execute/phyloc?todo=query&output=json&code=ALM", "address1": "P.O. BOX 2000", "state": "PA", "organization": "FCI Allenwood Medium", "identifier": "ALM"},
{"city": "White Deer", "zip": "17887", "url": "http://www.bop.gov/PublicInfo/execute/phyloc?todo=query&output=json&code=ALF", "address1": "P.O. BOX 1000", "state": "PA", "organization": "FCI Allenwood Low", "identifier": "ALF"}]