[{"city": "Sneads", "zip": "32460-4166", "url": "http://www.dc.state.fl.us/orginfo/facilitydir.html#X102", "address1": "35 Apalachee Drive", "state": "FL", "organization": "Apalachee Correctional Institution East", "identifier": "102"},
{"city": "Sneads", "zip": "32460-4165", "url": "http://www.dc.state.fl.us/orginfo/facilitydir.html#X101", "address1": "52 West Unit Drive", "state": "FL", "organization": "Apalachee Correctional Institution West", "identifier": "101"},
{"city": "Panama City", "zip": "32404-5492", "url": "http://www.dc.state.fl.us/orginfo/facilitydir.html#X112", "address1": "5400 Bayline Drive", "state": "FL", "organization": "Bay Correctional Facility", "identifier": "112"},
{"city": "Milton", "zip": "32583-0000", "url": "http://www.dc.state.fl.us/orginfo/facilitydir.html#X185", "address1": "5914 Jeff Ates Road", "state": "FL", "organization": "Blackwater River Correctional Facility", "identifier": "185"},
{"city": "Blountstown", "zip": "32424-5156", "url": "http://www.dc.state.fl.us/orginfo/facilitydir.html#X105", "address1": "19562 SE Institution Drive", "state": "FL", "organization": "Calhoun Correctional Institution", "identifier": "105"},
{"city": "Century", "zip": "32535-3659", "url": "http://www.dc.state.fl.us/orginfo/facilitydir.html#X106", "address1": "400 Tedder Road", "state": "FL", "organization": "Century Correctional Institution", "identifier": "106"},
{"city": "Carrabelle", "zip": "32322", "url": "http://www.dc.state.fl.us/orginfo/facilitydir.html#X113", "address1": "1760 Highway 67 North", "state": "FL", "organization": "Franklin Correctional Institution", "identifier": "113"},
{"city": "Quincy", "zip": "32351-9100", "url": "http://www.dc.state.fl.us/orginfo/facilitydir.html#X111", "address1": "6044 Greensboro Highway", "state": "FL", "organization": "Gadsden Correctional Facility", "identifier": "111"},
{"city": "Graceville", "zip": "32440", "url": "http://www.dc.state.fl.us/orginfo/facilitydir.html#X159", "address1": "5168 Ezell Rd.", "state": "FL", "organization": "Graceville Correctional Facility", "identifier": "159"},
{"city": "Wewahitchka", "zip": "32465-0010", "url": "http://www.dc.state.fl.us/orginfo/facilitydir.html#X109", "address1": "500 Ike Steele Road", "state": "FL", "organization": "Gulf Correctional Institution", "identifier": "109"},
{"city": "Wewahitchka", "zip": "32465-0010", "url": "http://www.dc.state.fl.us/orginfo/facilitydir.html#X109", "address1": "699 Ike Steel Road", "state": "FL", "organization": "Gulf Correctional Institution Annex", "identifier": "109"},
{"city": "Bonifay", "zip": "32425-0190", "url": "http://www.dc.state.fl.us/orginfo/facilitydir.html#X107", "address1": "3142 Thomas Drive", "state": "FL", "organization": "Holmes Correctional Institution", "identifier": "107"},
{"city": "Malone", "zip": "32445-3144", "url": "http://www.dc.state.fl.us/orginfo/facilitydir.html#X104", "address1": "5563 10th Street", "state": "FL", "organization": "Jackson Correctional Institution", "identifier": "104"},
{"city": "Monticello", "zip": "32344-0430", "url": "http://www.dc.state.fl.us/orginfo/facilitydir.html#X103", "address1": "1050 Big Joe Road", "state": "FL", "organization": "Jefferson Correctional Institution", "identifier": "103"},
{"city": "Bristol", "zip": "32321-9711", "url": "http://www.dc.state.fl.us/orginfo/facilitydir.html#X120", "address1": "11064 N.W. Dempsey Barron Road", "state": "FL", "organization": "Liberty Correctional Institution", "identifier": "120"},
{"city": "Chipley", "zip": "32428-3501", "url": "http://www.dc.state.fl.us/orginfo/facilitydir.html#X110", "address1": "4455 Sam Mitchell Drive", "state": "FL", "organization": "Northwest Florida Reception Center", "identifier": "110"},
{"city": "Chipley", "zip": "32428-3501", "url": "http://www.dc.state.fl.us/orginfo/facilitydir.html#X110", "address1": "4455 Sam Mitchell Drive", "state": "FL", "organization": "Northwest Florida Reception Center Annex", "identifier": "110"},
{"city": "Crestview", "zip": "32539-6708", "url": "http://www.dc.state.fl.us/orginfo/facilitydir.html#X115", "address1": "3189 Colonel Greg Malloy Road", "state": "FL", "organization": "Okaloosa Correctional Institution", "identifier": "115"},
{"city": "Quincy", "zip": "32351-8645", "url": "http://www.dc.state.fl.us/orginfo/facilitydir.html#X139", "address1": "2225 Pat Thomas Parkway", "state": "FL", "organization": "Quincy Annex", "identifier": "139"},
{"city": "Milton", "zip": "32583-7914", "url": "http://www.dc.state.fl.us/orginfo/facilitydir.html#X119", "address1": "5850 East Milton Rd.", "state": "FL", "organization": "Santa Rosa Correctional Institution", "identifier": "119"},
{"city": "Milton", "zip": "32583-7914", "url": "http://www.dc.state.fl.us/orginfo/facilitydir.html#X119", "address1": "5850 East Milton Rd.", "state": "FL", "organization": "Santa Rosa Correctional Institution Annex", "identifier": "119"},
{"city": "Perry", "zip": "32348-8747", "url": "http://www.dc.state.fl.us/orginfo/facilitydir.html#X218", "address1": "8501 Hampton Springs Road", "state": "FL", "organization": "Taylor Correctional Institution", "identifier": "218"},
{"city": "Perry", "zip": "32348-8747", "url": "http://www.dc.state.fl.us/orginfo/facilitydir.html#X218", "address1": "8501 Hampton Springs Road", "state": "FL", "organization": "Taylor Correctional Institution Annex", "identifier": "218"},
{"city": "Crawfordville", "zip": "32327-4963", "url": "http://www.dc.state.fl.us/orginfo/facilitydir.html#X118", "address1": "110 Melaleuca Drive", "state": "FL", "organization": "Wakulla Correctional Institution", "identifier": "118"},
{"city": "Crawfordville", "zip": "32327-4963", "url": "http://www.dc.state.fl.us/orginfo/facilitydir.html#X118", "address1": "110 Melaleuca Drive", "state": "FL", "organization": "Wakulla Correctional Institution Annex", "identifier": "118"},
{"city": "DeFuniak Springs", "zip": "32433-1831", "url": "http://www.dc.state.fl.us/orginfo/facilitydir.html#X108", "address1": "691 Institution Road", "state": "FL", "organization": "Walton Correctional Institution", "identifier": "108"},
{"city": "Sanderson", "zip": "32087-2359", "url": "http://www.dc.state.fl.us/orginfo/facilitydir.html#X279", "address1": "20706 US Highway 90 West", "state": "FL", "organization": "Baker Correctional Institution", "identifier": "279"},
{"city": "Lake City", "zip": "32025-2013", "url": "http://www.dc.state.fl.us/orginfo/facilitydir.html#X201", "address1": "216 S.E. Corrections Way", "state": "FL", "organization": "Columbia Correctional Institution", "identifier": "201"},
{"city": "Lake City", "zip": "32025-2013", "url": "http://www.dc.state.fl.us/orginfo/facilitydir.html#X201", "address1": "216 S.E. Corrections Way", "state": "FL", "organization": "Columbia Correctional Institution Annex", "identifier": "201"},
{"city": "Cross City", "zip": "32628", "url": "http://www.dc.state.fl.us/orginfo/facilitydir.html#X211", "address1": "568 NE 255th Street", "state": "FL", "organization": "Cross City Correctional Institution", "identifier": "211"},
{"city": "Raiford", "zip": "32026-1000", "url": "http://www.dc.state.fl.us/orginfo/facilitydir.html#X205", "address1": "7819 N.W. 228th Street", "state": "FL", "organization": "Florida State Prison", "identifier": "205"},
{"city": "Raiford", "zip": "32026-1000", "url": "http://www.dc.state.fl.us/orginfo/facilitydir.html#X205", "address1": "7819 N.W. 228th Street", "state": "FL", "organization": "Florida State Prison West Unit", "identifier": "205"},
{"city": "Ocala", "zip": "34482-1479", "url": "http://www.dc.state.fl.us/orginfo/facilitydir.html#X368", "address1": "3700 NW 111th Place", "state": "FL", "organization": "Florida Women'S Reception Center", "identifier": "368"},
{"city": "Jasper", "zip": "32052-1360", "url": "http://www.dc.state.fl.us/orginfo/facilitydir.html#X215", "address1": "10650 SW 46th Street", "state": "FL", "organization": "Hamilton Correctional Institution", "identifier": "215"},
{"city": "Jasper", "zip": "32052-1360", "url": "http://www.dc.state.fl.us/orginfo/facilitydir.html#X215", "address1": "10650 SW 46th Street", "state": "FL", "organization": "Hamilton Correctional Institution Annex", "identifier": "215"},
{"city": "Lake City", "zip": "32055-6290", "url": "http://www.dc.state.fl.us/orginfo/facilitydir.html#X219", "address1": "7906 East Highway 90", "state": "FL", "organization": "Lake City Correctional Facility", "identifier": "219"},
{"city": "Trenton", "zip": "32693-5641", "url": "http://www.dc.state.fl.us/orginfo/facilitydir.html#X281", "address1": "3449 S.W. State Road 26", "state": "FL", "organization": "Lancaster Correctional Institution", "identifier": "281"},
{"city": "Raiford", "zip": "32026-2000", "url": "http://www.dc.state.fl.us/orginfo/facilitydir.html#X255", "address1": "7819 N.W. 228th Street", "state": "FL", "organization": "Lawtey Correctional Institution", "identifier": "255"},
{"city": "Ocala", "zip": "34482-1479", "url": "http://www.dc.state.fl.us/orginfo/facilitydir.html#X314", "address1": "11120 NW Gainesville Rd", "state": "FL", "organization": "Lowell Correctional Institution", "identifier": "314"},
{"city": "Ocala", "zip": "34482-1479", "url": "http://www.dc.state.fl.us/orginfo/facilitydir.html#X314", "address1": "11120 NW Gainesville Rd", "state": "FL", "organization": "Lowell Correctional Institution Annex", "identifier": "314"},
{"city": "Madison", "zip": "32340-4430", "url": "http://www.dc.state.fl.us/orginfo/facilitydir.html#X216", "address1": "382 Southwest MCI Way", "state": "FL", "organization": "Madison Correctional Institution", "identifier": "216"},
{"city": "Lowell", "zip": "32663-0158", "url": "http://www.dc.state.fl.us/orginfo/facilitydir.html#X304", "address1": "P.O. Box 158", "state": "FL", "organization": "Marion Correctional Institution", "identifier": "304"},
{"city": "Mayo", "zip": "32066-3458", "url": "http://www.dc.state.fl.us/orginfo/facilitydir.html#X223", "address1": "8784 US Highway 27 West", "state": "FL", "organization": "Mayo Correctional Institution", "identifier": "223"},
{"city": "Mayo", "zip": "32066-3458", "url": "http://www.dc.state.fl.us/orginfo/facilitydir.html#X223", "address1": "8784 US Highway 27 West", "state": "FL", "organization": "Mayo Correctional Institution Annex", "identifier": "223"},
{"city": "East Palatka", "zip": "32131-2112", "url": "http://www.dc.state.fl.us/orginfo/facilitydir.html#X214", "address1": "128 Yelvington Road", "state": "FL", "organization": "Putnam Correctional Institution", "identifier": "214"},
{"city": "Lake Butler", "zip": "32054-0628", "url": "http://www.dc.state.fl.us/orginfo/facilitydir.html#X209", "address1": "P.O. Box 628", "address2": "Hwy 231", "state": "FL", "organization": "Reception And Medical Center", "identifier": "209"},
{"city": "Lake Butler", "zip": "32054-0628", "url": "http://www.dc.state.fl.us/orginfo/facilitydir.html#X209", "address1": "P.O. Box 628", "address2": "Hwy 231", "state": "FL", "organization": "Reception And Medical Center West Unit", "identifier": "209"},
{"city": "Live Oak", "zip": "32060", "url": "http://www.dc.state.fl.us/orginfo/facilitydir.html#X230", "address1": "5964 U.S. Highway 90", "state": "FL", "organization": "Suwannee Correctional Institution", "identifier": "230"},
{"city": "Live Oak", "zip": "32060", "url": "http://www.dc.state.fl.us/orginfo/facilitydir.html#X230", "address1": "5964 U.S. Highway 90", "state": "FL", "organization": "Suwannee Correctional Institution Annex", "identifier": "230"},
{"city": "Daytona Beach", "zip": "32124-1098", "url": "http://www.dc.state.fl.us/orginfo/facilitydir.html#X282", "address1": "3950 Tiger Bay Road", "state": "FL", "organization": "Tomoka Correctional Institution", "identifier": "282"},
{"city": "Raiford", "zip": "32026-4000", "url": "http://www.dc.state.fl.us/orginfo/facilitydir.html#X213", "address1": "7819 N.W. 228th Street", "state": "FL", "organization": "Union Correctional Institution", "identifier": "213"},
{"city": "Avon Park", "zip": "33825", "url": "http://www.dc.state.fl.us/orginfo/facilitydir.html#X503", "address1": "8100 Highway 64 East", "state": "FL", "organization": "Avon Park Correctional Institution", "identifier": "503"},
{"city": "Orlando", "zip": "32831-2518", "url": "http://www.dc.state.fl.us/orginfo/facilitydir.html#X320", "address1": "7000 H C Kelley Rd", "state": "FL", "organization": "Central Florida Reception Center", "identifier": "320"},
{"city": "Orlando", "zip": "32831-2518", "url": "http://www.dc.state.fl.us/orginfo/facilitydir.html#X320", "address1": "7000 H C Kelley Rd", "state": "FL", "organization": "Central Florida Reception Center East Unit", "identifier": "320"},
{"city": "Orlando", "zip": "32831-2518", "url": "http://www.dc.state.fl.us/orginfo/facilitydir.html#X320", "address1": "7000 H C Kelley Rd", "state": "FL", "organization": "Central Florida Reception Center South Unit", "identifier": "320"},
{"city": "Punta Gorda", "zip": "33955-9701", "url": "http://www.dc.state.fl.us/orginfo/facilitydir.html#X510", "address1": "33123 Oil Well Road", "state": "FL", "organization": "Charlotte Correctional Institution", "identifier": "510"},
{"city": "Florida City", "zip": "33034-6409", "url": "http://www.dc.state.fl.us/orginfo/facilitydir.html#X463", "address1": "19000 S. W. 377th Street", "state": "FL", "organization": "Dade Correctional Institution", "identifier": "463"},
{"city": "Arcadia", "zip": "34266-7800", "url": "http://www.dc.state.fl.us/orginfo/facilitydir.html#X564", "address1": "13617 S.E. Highway 70", "state": "FL", "organization": "Desoto Annex", "identifier": "564"},
{"city": "Miami", "zip": "33194", "url": "http://www.dc.state.fl.us/orginfo/facilitydir.html#X401", "address1": "1599 S.W. 187th Ave.", "state": "FL", "organization": "Everglades Correctional Institution", "identifier": "401"},
{"city": "Bowling Green", "zip": "33834-9505", "url": "http://www.dc.state.fl.us/orginfo/facilitydir.html#X501", "address1": "6901 State Road 62", "state": "FL", "organization": "Hardee Correctional Institution", "identifier": "501"},
{"city": "Brooksville", "zip": "34604-8167", "url": "http://www.dc.state.fl.us/orginfo/facilitydir.html#X336", "address1": "16415 Spring Hill Drive", "state": "FL", "organization": "Hernando Correctional Institution", "identifier": "336"},
{"city": "Florida City", "zip": "33034-6409", "url": "http://www.dc.state.fl.us/orginfo/facilitydir.html#X419", "address1": "19000 S. W. 377th Street", "state": "FL", "organization": "Homestead Correctional Institution", "identifier": "419"},
{"city": "Clermont", "zip": "34715-9025", "url": "http://www.dc.state.fl.us/orginfo/facilitydir.html#X312", "address1": "19225 U.S. Highway 27", "state": "FL", "organization": "Lake Correctional Institution", "identifier": "312"},
{"city": "Indiantown", "zip": "34956-4397", "url": "http://www.dc.state.fl.us/orginfo/facilitydir.html#X430", "address1": "1150 S.W. Allapattah Road", "state": "FL", "organization": "Martin Correctional Institution", "identifier": "430"},
{"city": "Moore Haven", "zip": "33471", "url": "http://www.dc.state.fl.us/orginfo/facilitydir.html#X511", "address1": "Post Office Box 719001", "state": "FL", "organization": "Moore Haven Correctional Facility", "identifier": "511"},
{"city": "Okeechobee", "zip": "34972-4824", "url": "http://www.dc.state.fl.us/orginfo/facilitydir.html#X404", "address1": "3420 N.E. 168th St.", "state": "FL", "organization": "Okeechobee Correctional Institution", "identifier": "404"},
{"city": "Polk City", "zip": "33868-6925", "url": "http://www.dc.state.fl.us/orginfo/facilitydir.html#X508", "address1": "10800 Evans Road", "state": "FL", "organization": "Polk Correctional Institution", "identifier": "580"},
{"city": "South Bay", "zip": "33493-2233", "url": "http://www.dc.state.fl.us/orginfo/facilitydir.html#X405", "address1": "600 U.S. Highway 27, South", "state": "FL", "organization": "South Bay Correctional Facility", "identifier": "405"},
{"city": "Doral", "zip": "33178-3014", "url": "http://www.dc.state.fl.us/orginfo/facilitydir.html#X402", "address1": "13910 NW 41st Street", "state": "FL", "organization": "South Florida Reception Center South Unit", "identifier": "402"},
{"city": "Doral", "zip": "33178-3003", "url": "http://www.dc.state.fl.us/orginfo/facilitydir.html#X402", "address1": "14000 NW 41st Street", "state": "FL", "organization": "South Florida Reception Center", "identifier": "402"},
{"city": "Bushnell", "zip": "33513-0667", "url": "http://www.dc.state.fl.us/orginfo/facilitydir.html#X307", "address1": "9544", "address2": "County Road 476B", "state": "FL", "organization": "Sumter Correctional Institution", "identifier": "307"},
{"city": "Zephyrhills", "zip": "33541-9701", "url": "http://www.dc.state.fl.us/orginfo/facilitydir.html#X573", "address1": "2739 Gall Boulevard", "state": "FL", "organization": "Zephyrhills Correctional Institution", "identifier": "573"},
{"city": "Havana", "zip": "32333", "url": "http://www.dc.state.fl.us/orginfo/facilitydir.html#X279", "address1": "630 Opportunity Lane", "state": "FL", "organization": "Gadsden Re-Entry Center", "identifier": "144"},
{"city": "Pahokee", "zip": "33476", "url": "http://www.dc.state.fl.us/orginfo/facilitydir.html#", "address1": "500 Baybottom Road", "state": "FL", "organization": "Sago Palm Re-Entry Center", "identifier": "430"},
{"city": "Jay", "zip": "32565-2204", "url": "http://www.dc.state.fl.us/orginfo/facilitydir.html#X177", "address1": "6920 Highway 4", "state": "FL", "organization": "Berrydale Forestry Camp", "identifier": null},
{"city": "Blountstown", "zip": "32424-5156", "url": "http://www.dc.state.fl.us/orginfo/facilitydir.html#X165", "address1": "19564 SE Inst. Drive", "state": "FL", "organization": "Calhoun Work Camp", "identifier": null},
{"city": "Century", "zip": "32535-3659", "url": "http://www.dc.state.fl.us/orginfo/facilitydir.html#X167", "address1": "400 Tedder Road", "state": "FL", "organization": "Century Work Camp", "identifier": null},
{"city": "Carrabelle", "zip": "32322", "url": "http://www.dc.state.fl.us/orginfo/facilitydir.html", "address1": "1760 Highway 67", "state": "FL", "organization": "Franklin Work Camp", "identifier": null},
{"city": "Graceville", "zip": "32440-4289", "url": "http://www.dc.state.fl.us/orginfo/facilitydir.html#X160", "address1": "5230 Ezell Road", "state": "FL", "organization": "Graceville Work Camp", "identifier": null},
{"city": "White City", "zip": "32465", "url": "http://www.dc.state.fl.us/orginfo/facilitydir.html#X170", "address1": "3222 DOC Whitfield Road", "state": "FL", "organization": "Gulf Forestry Camp", "identifier": null},
{"city": "Bonifay", "zip": "32425-4238", "url": "http://www.dc.state.fl.us/orginfo/facilitydir.html#X162", "address1": "3182 Thomas Drive", "state": "FL", "organization": "Holmes Work Camp", "identifier": null},
{"city": "Malone", "zip": "32445-9998", "url": "http://www.dc.state.fl.us/orginfo/facilitydir.html#X166", "address1": "5607 10th Street", "address2": "Hwy 71 North", "state": "FL", "organization": "Jackson Work Camp", "identifier": null},
{"city": "Bristol", "zip": "32321-0711", "url": "http://www.dc.state.fl.us/orginfo/facilitydir.html#X121", "address1": "11064 NW Dempsey Barron Road", "state": "FL", "organization": "Liberty Work Camp - South Unit", "identifier": null},
{"city": "Crestview", "zip": "32539-6708", "url": "http://www.dc.state.fl.us/orginfo/facilitydir.html#X161", "address1": "3189 Colonel Greg Malloy Road", "state": "FL", "organization": "Okaloosa Work Camp", "identifier": null},
{"city": "Milton", "zip": "32583", "url": "http://www.dc.state.fl.us/orginfo/facilitydir.html#X127", "address1": "5850 East Milton Road", "state": "FL", "organization": "Santa Rosa Work Camp", "identifier": null},
{"city": "Perry", "zip": "32348-0000", "url": "http://www.dc.state.fl.us/orginfo/facilitydir.html#X227", "address1": "8501 Hampton Springs Road", "state": "FL", "organization": "Taylor Work Camp", "identifier": null},
{"city": "Crawfordville", "zip": "32327-4963", "url": "http://www.dc.state.fl.us/orginfo/facilitydir.html#X173", "address1": "110 Melaleuca Drive", "state": "FL", "organization": "Wakulla Work Camp", "identifier": null},
{"city": "DeFuniak Springs", "zip": "32433-0000", "url": "http://www.dc.state.fl.us/orginfo/facilitydir.html#X108", "address1": "301 Institution Road", "state": "FL", "organization": "Walton Work Camp", "identifier": null},
{"city": "Sanderson", "zip": "32087-2359", "url": "http://www.dc.state.fl.us/orginfo/facilitydir.html#X261", "address1": "20706", "address2": "US Highway 90 West", "state": "FL", "organization": "Baker Work Camp", "identifier": null},
{"city": "Cross City", "zip": "32628", "url": "http://www.dc.state.fl.us/orginfo/facilitydir.html#X262", "address1": "568 N.E. 255th Street", "state": "FL", "organization": "Cross City Work Camp", "identifier": null},
{"city": "Gainesville", "zip": "32641-6067", "url": "http://www.dc.state.fl.us/orginfo/facilitydir.html#X240", "address1": "700 NE 55th Blvd.", "address2": "State Road 26 East", "state": "FL", "organization": "Gainesville Work Camp", "identifier": null},
{"city": "Trenton", "zip": "32693-5641", "url": "http://www.dc.state.fl.us/orginfo/facilitydir.html#X280", "address1": "3449 SW SR 26", "state": "FL", "organization": "Lancaster Work Camp", "identifier": null},
{"city": "Ocala", "zip": "34482", "url": "http://www.dc.state.fl.us/orginfo/facilitydir.html#X316", "address1": "11120 NW Gainesville Road", "state": "FL", "organization": "Lowell Work Camp", "identifier": null},
{"city": "Madison", "zip": "32340-4430", "url": "http://www.dc.state.fl.us/orginfo/facilitydir.html#X289", "address1": "Post Office Box 692", "address2": "382 SW MCI Way", "state": "FL", "organization": "Madison Work Camp", "identifier": null},
{"city": "Lowell", "zip": "32663-0158", "url": "http://www.dc.state.fl.us/orginfo/facilitydir.html#X364", "address1": "Post Office Box 158", "state": "FL", "organization": "Marion Work Camp", "identifier": null},
{"city": "Mayo", "zip": "32066", "url": "http://www.dc.state.fl.us/orginfo/facilitydir.html#X265", "address1": "8976 US 27 West", "state": "FL", "organization": "Mayo Work Camp", "identifier": null},
{"city": "Lake Butler", "zip": "32054", "url": "http://www.dc.state.fl.us/orginfo/facilitydir.html#X221", "address1": "P.O. Box 628", "state": "FL", "organization": "Rmc Work Camp", "identifier": null},
{"city": "Live Oak", "zip": "32060", "url": "http://www.dc.state.fl.us/orginfo/facilitydir.html#X232", "address1": "5964 US Highway 90", "state": "FL", "organization": "Suwannee Work Camp", "identifier": null},
{"city": "Daytona Beach", "zip": "32124-1098", "url": "http://www.dc.state.fl.us/orginfo/facilitydir.html#X284", "address1": "3950 Tiger Bay Road", "state": "FL", "organization": "Tomoka Work Camp", "identifier": null},
{"city": "Arcadia", "zip": "34266-8203", "url": "http://www.dc.state.fl.us/orginfo/facilitydir.html#X525", "address1": "2961 N.W. County Road 661", "state": "FL", "organization": "Arcadia Road Prison", "identifier": null},
{"city": "Avon Park", "zip": "33825", "url": "http://www.dc.state.fl.us/orginfo/facilitydir.html#X504", "address1": "8100 Highway 64 East", "state": "FL", "organization": "Avon Park Work Camp", "identifier": null},
{"city": "Big Pine Key", "zip": "33043-0509", "url": "http://www.dc.state.fl.us/orginfo/facilitydir.html#X426", "address1": "P.O. Box 430509", "address2": "450 Key Deer Blvd.", "state": "FL", "organization": "Big Pine Key Road Prison", "identifier": null},
{"city": "Arcadia", "zip": "34266-0000", "url": "http://www.dc.state.fl.us/orginfo/facilitydir.html#X560", "address1": "13617 SE Highway 70", "state": "FL", "organization": "Desoto Work Camp", "identifier": null},
{"city": "Fort Myers", "zip": "33994-1107", "url": "http://www.dc.state.fl.us/orginfo/facilitydir.html#X544", "address1": "P.O. Box 051107", "address2": "2575 Ortiz Avenue", "state": "FL", "organization": "Ft. Myers Work Camp", "identifier": null},
{"city": "Bowling Green", "zip": "33834-9505", "url": "http://www.dc.state.fl.us/orginfo/facilitydir.html#X563", "address1": "6899 State Road 62", "state": "FL", "organization": "Hardee Work Camp", "identifier": null},
{"city": "Clearwater", "zip": "33760-4006", "url": "http://www.dc.state.fl.us/orginfo/facilitydir.html#X552", "address1": "5201 Ulmerton Road", "state": "FL", "organization": "Largo Road Prison", "identifier": null},
{"city": "West Palm Beach", "zip": "33411-3616", "url": "http://www.dc.state.fl.us/orginfo/facilitydir.html#X431", "address1": "230 Sunshine Road", "state": "FL", "organization": "Loxahatchee Road Prison", "identifier": null},
{"city": "Indiantown", "zip": "34956-4310", "url": "http://www.dc.state.fl.us/orginfo/facilitydir.html#X420", "address1": "100 SW Allapattah Road", "state": "FL", "organization": "Martin Work Camp", "identifier": null},
{"city": "Polk City", "zip": "33868-6925", "url": "http://www.dc.state.fl.us/orginfo/facilitydir.html#X562", "address1": "10800 Evans Road", "state": "FL", "organization": "Polk Work Camp", "identifier": null},
{"city": "Bushnell", "zip": "33513-0667", "url": "http://www.dc.state.fl.us/orginfo/facilitydir.html#X308", "address1": "9544 County Road 476B", "state": "FL", "organization": "Sumter Basic Training Unit", "identifier": null},
{"city": "Bushnell", "zip": "33513-0667", "url": "http://www.dc.state.fl.us/orginfo/facilitydir.html#X365", "address1": "9858 County Road 476B", "state": "FL", "organization": "Sumter Work Camp", "identifier": null},
{"city": "Panama City", "zip": "32405-2795", "url": "http://www.dc.state.fl.us/orginfo/facilitydir.html#X163", "address1": "3609 Highway 390", "state": "FL", "organization": "Panama City Community Release Center", "identifier": null},
{"city": "Pensacola", "zip": "32501-1010", "url": "http://www.dc.state.fl.us/orginfo/facilitydir.html#X164", "address1": "3050 North L. Street", "state": "FL", "organization": "Pensacola Community Release Center", "identifier": null},
{"city": "Tallahassee", "zip": "32301-1030", "url": "http://www.dc.state.fl.us/orginfo/facilitydir.html#X187", "address1": "418 West Virginia Street", "state": "FL", "organization": "Shisa House - West", "identifier": null},
{"city": "Tallahassee", "zip": "32305-6739", "url": "http://www.dc.state.fl.us/orginfo/facilitydir.html#X168", "address1": "2616A Springhill Road", "state": "FL", "organization": "Tallahassee Community Release Center", "identifier": null},
{"city": "Jacksonville", "zip": "32254", "url": "http://www.dc.state.fl.us/orginfo/facilitydir.html#X267", "address1": "601 Agmac Avenue", "state": "FL", "organization": "Bridges Of Jacksonville", "identifier": null},
{"city": "Lake City", "zip": "32055-2564", "url": "http://www.dc.state.fl.us/orginfo/facilitydir.html#X249", "address1": "1099 N.W. Dot Gln", "state": "FL", "organization": "Bridges Of Lake City", "identifier": null},
{"city": "Gainesville", "zip": "32602-1202", "url": "http://www.dc.state.fl.us/orginfo/facilitydir.html#X266", "address1": "2901 Northeast 39th Avenue", "state": "FL", "organization": "Bridges Of Santa Fe", "identifier": null},
{"city": "Daytona Beach", "zip": "32124-1002", "url": "http://www.dc.state.fl.us/orginfo/facilitydir.html#X242", "address1": "3601 U.S. Highway 92 West", "state": "FL", "organization": "Daytona Beach Community Release Center", "identifier": null},
{"city": "Jacksonville", "zip": "32254", "url": "http://www.dc.state.fl.us/orginfo/facilitydir.html", "address1": "601 Agmac Avenue", "state": "FL", "organization": "Jacksonville Bridge", "identifier": null},
{"city": "Ocala", "zip": "34470-4231", "url": "http://www.dc.state.fl.us/orginfo/facilitydir.html#X355", "address1": "2006 N.E. 8th Road", "state": "FL", "organization": "Re-Entry Center Of Ocala", "identifier": null},
{"city": "Jacksonville", "zip": "32205-8017", "url": "http://www.dc.state.fl.us/orginfo/facilitydir.html#X278", "address1": "2830 Park Street", "state": "FL", "organization": "Shisa House - East", "identifier": null},
{"city": "Daytona Beach", "zip": "32124", "url": "http://www.dc.state.fl.us/orginfo/facilitydir.html#X285", "address1": "1200 Red John Road", "state": "FL", "organization": "Tomoka Crc - 285", "identifier": null},
{"city": "Daytona Beach", "zip": "32124", "url": "http://www.dc.state.fl.us/orginfo/facilitydir.html#X298", "address1": "1341 Indian Lake Road", "state": "FL", "organization": "Tomoka Crc - 298", "identifier": null},
{"city": "Jacksonville", "zip": "32219", "url": "http://www.dc.state.fl.us/orginfo/facilitydir.html#X243", "address1": "13200 Old Kings Road", "state": "FL", "organization": "Tth Of Dinsmore", "identifier": null},
{"city": "West Palm Beach", "zip": "33411-3639", "url": "http://www.dc.state.fl.us/orginfo/facilitydir.html#X452", "address1": "263 Fairgrounds Road", "state": "FL", "organization": "Atlantic Community Release Center", "identifier": null},
{"city": "Bradenton", "zip": "34203-5012", "url": "http://www.dc.state.fl.us/orginfo/facilitydir.html#X412", "address1": "2104 63rd Avenue, East", "state": "FL", "organization": "Bradenton Bridge", "identifier": null},
{"city": "Cocoa", "zip": "32927-4738", "url": "http://www.dc.state.fl.us/orginfo/facilitydir.html#X341", "address1": "585 Camp Road", "state": "FL", "organization": "Bridges Of Cocoa", "identifier": null},
{"city": "Orlando", "zip": "32808-5613", "url": "http://www.dc.state.fl.us/orginfo/facilitydir.html#X351", "address1": "2007 North Mercy Drive", "state": "FL", "organization": "Bridges Of Orlando", "identifier": null},
{"city": "Pompano Beach", "zip": "33060-6822", "url": "http://www.dc.state.fl.us/orginfo/facilitydir.html#X467", "address1": "400 F SW 2nd Street", "state": "FL", "organization": "Bridges Of Pompano", "identifier": null},
{"city": "Ft. Lauderdale", "zip": "33309-2800", "url": "http://www.dc.state.fl.us/orginfo/facilitydir.html#X411", "address1": "5600 Northwest 9th Avenue", "state": "FL", "organization": "Broward Bridge", "identifier": null},
{"city": "Ft. Pierce", "zip": "34982-6599", "url": "http://www.dc.state.fl.us/orginfo/facilitydir.html#X444", "address1": "1203 Bell Avenue", "state": "FL", "organization": "Fort Pierce Community Release Center", "identifier": null},
{"city": "Pembroke Pines", "zip": "33025-4542", "url": "http://www.dc.state.fl.us/orginfo/facilitydir.html#X446", "address1": "8501 W. Cypress Drive", "state": "FL", "organization": "Hollywood Community Release Center", "identifier": null},
{"city": "Kissimmee", "zip": "34744-1200", "url": "http://www.dc.state.fl.us/orginfo/facilitydir.html#X374", "address1": "2925 Michigan Avenue", "state": "FL", "organization": "Kissimmee Community Release Center", "identifier": null},
{"city": "Miami", "zip": "33166-6817", "url": "http://www.dc.state.fl.us/orginfo/facilitydir.html#X457", "address1": "7090 Northwest 41st Street", "state": "FL", "organization": "Miami North Community Release Center", "identifier": null},
{"city": "Opa Locka", "zip": "33054-4310", "url": "http://www.dc.state.fl.us/orginfo/facilitydir.html#X473", "address1": "5400 Northwest 135th Street", "state": "FL", "organization": "Opa Locka Community Release Center", "identifier": null},
{"city": "Orlando", "zip": "32808", "url": "http://www.dc.state.fl.us/orginfo/facilitydir.html#X352", "address1": "2025 North Mercy Drive", "state": "FL", "organization": "Orlando Bridge", "identifier": null},
{"city": "Orlando", "zip": "32818-5278", "url": "http://www.dc.state.fl.us/orginfo/facilitydir.html#X361", "address1": "7300 Laurel Hill Drive", "state": "FL", "organization": "Orlando Community Release Center", "identifier": null},
{"city": "Clearwater", "zip": "33760-4002", "url": "http://www.dc.state.fl.us/orginfo/facilitydir.html#X554", "address1": "5205 Ulmerton Road", "state": "FL", "organization": "Pinellas Community Release Center", "identifier": null},
{"city": "St. Petersburg", "zip": "33711-2000", "url": "http://www.dc.state.fl.us/orginfo/facilitydir.html#X583", "address1": "4237 8th Avenue, South", "state": "FL", "organization": "St. Petersburg Community Release Center", "identifier": null},
{"city": "St. Petersburg", "zip": "33702-1422", "url": "http://www.dc.state.fl.us/orginfo/facilitydir.html#X345", "address1": "10596 Gandy Boulevard", "state": "FL", "organization": "Suncoast Community Release Center", "identifier": null},
{"city": "Tampa", "zip": "33619", "url": "http://www.dc.state.fl.us/orginfo/facilitydir.html#X469", "address1": "3630 N. 50th Street", "state": "FL", "organization": "Tampa Community Release Center", "identifier": null},
{"city": "Bartow", "zip": "33830-4200", "url": "http://www.dc.state.fl.us/orginfo/facilitydir.html#X540", "address1": "550 N. Restwood Avenue", "state": "FL", "organization": "Tth Of Bartow", "identifier": null},
{"city": "Kissimmee", "zip": "34744", "url": "http://www.dc.state.fl.us/orginfo/facilitydir.html#X353", "address1": "900 East Vine Street", "state": "FL", "organization": "Tth Of Kissimmee", "identifier": null},
{"city": "Tarpon Springs", "zip": "34689-6707", "url": "http://www.dc.state.fl.us/orginfo/facilitydir.html#X572", "address1": "566 Brady Road", "state": "FL", "organization": "Tth Of Tarpon Springs", "identifier": null},
{"city": "West Palm Beach", "zip": "33411-3639", "url": "http://www.dc.state.fl.us/orginfo/facilitydir.html#X469", "address1": "261 West Fairgrounds Road", "state": "FL", "organization": "West Palm Beach Community Release Center", "identifier": null},
{"city": "Pensacola", "zip": "32503-3558", "url": "http://www.dc.state.fl.us/orginfo/facilitydir.html", "address1": "3101 North Davis Highway", "state": "FL", "organization": "Pensacola - Circuit", "identifier": "010"},
{"city": "Milton", "zip": "32570-4974", "url": "http://www.dc.state.fl.us/orginfo/facilitydir.html", "address1": "6738 Caroline Street, S.E.", "state": "FL", "organization": "Milton", "identifier": "011"},
{"city": "Crestview", "zip": "32536", "url": "http://www.dc.state.fl.us/orginfo/facilitydir.html", "address1": "250 West Pine Avenue, Suite A", "state": "FL", "organization": "Crestview", "identifier": "012"},
{"city": "Shalimar", "zip": "32579-1377", "url": "http://www.dc.state.fl.us/orginfo/facilitydir.html", "address1": "74-3rd Street", "state": "FL", "organization": "Shalimar", "identifier": "013"},
{"city": "Defuniak Springs", "zip": "32433", "url": "http://www.dc.state.fl.us/orginfo/facilitydir.html", "address1": "2338 Hwy 90 West", "state": "FL", "organization": "Defuniak Springs", "identifier": "014"},
{"city": "Pensacola", "zip": "32503", "url": "http://www.dc.state.fl.us/orginfo/facilitydir.html", "address1": "3101 N. Davis Hwy.", "state": "FL", "organization": "Pensacola West", "identifier": "015"},
{"city": "Pensacola", "zip": "32503", "url": "http://www.dc.state.fl.us/orginfo/facilitydir.html", "address1": "3101 N. Davis Hwy.", "state": "FL", "organization": "Pensacola North", "identifier": "016"},
{"city": "Pensacola", "zip": "32503-4945", "url": "http://www.dc.state.fl.us/orginfo/facilitydir.html", "address1": "3101 North Davis Hwy.", "state": "FL", "organization": "Pensacola Central", "identifier": "018"},
{"city": "Tallahassee", "zip": "32301", "url": "http://www.dc.state.fl.us/orginfo/facilitydir.html", "address1": "1815 South Gadsden Street", "state": "FL", "organization": "Tallahassee Main / Intake", "identifier": "020"},
{"city": "Crawfordville", "zip": "32327-3139", "url": "http://www.dc.state.fl.us/orginfo/facilitydir.html", "address1": "3278 Crawfordville Highway", "address2": "Unit A-2, Mill Creek Plaza", "state": "FL", "organization": "Crawfordville", "identifier": "021"},
{"city": "Quincy", "zip": "32351-3121", "url": "http://www.dc.state.fl.us/orginfo/facilitydir.html", "address1": "305-G West Crawford Street", "state": "FL", "organization": "Quincy", "identifier": "022"},
{"city": "Monticello", "zip": "32344", "url": "http://www.dc.state.fl.us/orginfo/facilitydir.html", "address1": "1455 South Jefferson Street", "state": "FL", "organization": "Monticello", "identifier": "023"},
{"city": "Tallahassee", "zip": "32305", "url": "http://www.dc.state.fl.us/orginfo/facilitydir.html", "address1": "1111 Sawmill Rd", "state": "FL", "organization": "Tallahassee North", "identifier": "024"},
{"city": "Tallahassee", "zip": "32305", "url": "http://www.dc.state.fl.us/orginfo/facilitydir.html", "address1": "1111 Sawmill Rd", "state": "FL", "organization": "Tallahassee South", "identifier": "025"},
{"city": "Tallahassee", "zip": "32305", "url": "http://www.dc.state.fl.us/orginfo/facilitydir.html", "address1": "1111 Sawmill Rd", "state": "FL", "organization": "Tallahassee Circuit", "identifier": "026"},
{"city": "Lake City", "zip": "32055", "url": "http://www.dc.state.fl.us/orginfo/facilitydir.html", "address1": "1435 US Highway 90 West, Suite 120", "state": "FL", "organization": "Lake City Circuit", "identifier": "03C"},
{"city": "Lake City", "zip": "32055", "url": "http://www.dc.state.fl.us/orginfo/facilitydir.html", "address1": "1435 US Highway 90 West, Suite 120", "state": "FL", "organization": "Lake City Main", "identifier": "030"},
{"city": "Live Oak", "zip": "32064-1630", "url": "http://www.dc.state.fl.us/orginfo/facilitydir.html", "address1": "506 N.W.Houston Avenue, Suite B", "state": "FL", "organization": "Live Oak", "identifier": "031"},
{"city": "Madison", "zip": "32340", "url": "http://www.dc.state.fl.us/orginfo/facilitydir.html", "address1": "126 SW Sumatra Avenue, Suite C", "state": "FL", "organization": "Madison", "identifier": "032"},
{"city": "Perry", "zip": "32347-0540", "url": "http://www.dc.state.fl.us/orginfo/facilitydir.html", "address1": "121 North Jefferson Street", "state": "FL", "organization": "Perry", "identifier": "033"},
{"city": "Old Town", "zip": "32680", "url": "http://www.dc.state.fl.us/orginfo/facilitydir.html", "address1": "25815 SE Hwy 19", "state": "FL", "organization": "Old Town", "identifier": "034"},
{"city": "Jacksonville", "zip": "32254-3574", "url": "http://www.dc.state.fl.us/orginfo/facilitydir.html", "address1": "592 Ellis Road, Suite 114", "state": "FL", "organization": "Jacksonville - Circuit / Main", "identifier": "040"},
{"city": "Jacksonville", "zip": "32209-6805", "url": "http://www.dc.state.fl.us/orginfo/facilitydir.html", "address1": "921 North Davis Street, Building B, Suite 160", "state": "FL", "organization": "Jacksonville Metro", "identifier": "041"},
{"city": "Jacksonville", "zip": "32207-9502", "url": "http://www.dc.state.fl.us/orginfo/facilitydir.html", "address1": "4613 Phillips Highway, Suite 221", "state": "FL", "organization": "Jacksonville South", "identifier": "042"},
{"city": "Yulee", "zip": "32097", "url": "http://www.dc.state.fl.us/orginfo/facilitydir.html", "address1": "86058 Pages Dairy Road", "state": "FL", "organization": "Yulee", "identifier": "044"},
{"city": "Orange Park", "zip": "32065-0006", "url": "http://www.dc.state.fl.us/orginfo/facilitydir.html", "address1": "302 College Drive", "state": "FL", "organization": "Orange Park", "identifier": "045"},
{"city": "Ocala", "zip": "34470-6651", "url": "http://www.dc.state.fl.us/orginfo/facilitydir.html", "address1": "24 NE 1st ST", "state": "FL", "organization": "Ocala East", "identifier": "050"},
{"city": "Tavares", "zip": "32778", "url": "http://www.dc.state.fl.us/orginfo/facilitydir.html", "address1": "28402 CR 561", "state": "FL", "organization": "Tavares-Circuit / Main", "identifier": "051"},
{"city": "Bushnell", "zip": "33513-3624", "url": "http://www.dc.state.fl.us/orginfo/facilitydir.html", "address1": "4420 S Hwy 301", "state": "FL", "organization": "Bushnell", "identifier": "052"},
{"city": "Inverness", "zip": "34450-6074", "url": "http://www.dc.state.fl.us/orginfo/facilitydir.html", "address1": "601 US HWY 41S", "state": "FL", "organization": "Inverness", "identifier": "053"},
{"city": "Brooksville", "zip": "34601-3832", "url": "http://www.dc.state.fl.us/orginfo/facilitydir.html", "address1": "20144 Cortez Blvd", "state": "FL", "organization": "Brooksville", "identifier": "054"},
{"city": "Ocala", "zip": "34474-9321", "url": "http://www.dc.state.fl.us/orginfo/facilitydir.html", "address1": "5640 SW 6th Place, Suite 100", "state": "FL", "organization": "Ocala West", "identifier": "056"},
{"city": "Leesburg", "zip": "34748-9712", "url": "http://www.dc.state.fl.us/orginfo/facilitydir.html", "address1": "3330 W. Main ST", "state": "FL", "organization": "Leesburg", "identifier": "057"},
{"city": "Daytona Beach", "zip": "32117-4611", "url": "http://www.dc.state.fl.us/orginfo/facilitydir.html", "address1": "1023 Mason Avenue", "state": "FL", "organization": "Daytona Beach - Main", "identifier": "070"},
{"city": "DeLand", "zip": "32724-5510", "url": "http://www.dc.state.fl.us/orginfo/facilitydir.html", "address1": "334 E. New York Ave.", "state": "FL", "organization": "Deland", "identifier": "071"},
{"city": "Ormond Beach", "zip": "32174", "url": "http://www.dc.state.fl.us/orginfo/facilitydir.html", "address1": "9 West Granada Boulevard", "state": "FL", "organization": "Daytona Beach - Circuit", "identifier": "072"},
{"city": "Palatka", "zip": "32177-4724", "url": "http://www.dc.state.fl.us/orginfo/facilitydir.html", "address1": "423 St. Johns Avenue", "state": "FL", "organization": "Palatka", "identifier": "073"},
{"city": "St. Augustine", "zip": "32084-4377", "url": "http://www.dc.state.fl.us/orginfo/facilitydir.html", "address1": "Lightner Museum Bldg.", "address2": "75 King Street, Suite 310", "state": "FL", "organization": "St. Augustine", "identifier": "074"},
{"city": "Bunnell", "zip": "32110", "url": "http://www.dc.state.fl.us/orginfo/facilitydir.html", "address1": "2405 East Moody Blvd., Ste 301", "state": "FL", "organization": "Bunnell", "identifier": "075"},
{"city": "Daytona Beach", "zip": "32117", "url": "http://www.dc.state.fl.us/orginfo/facilitydir.html", "address1": "1051 Mason Avenue", "state": "FL", "organization": "Daytona Beach - Central", "identifier": "077"},
{"city": "Gainesville", "zip": "32601", "url": "http://www.dc.state.fl.us/orginfo/facilitydir.html", "address1": "215 SE 2nd Avenue", "state": "FL", "organization": "Gainesville Main / Intake", "identifier": "080"},
{"city": "Chiefland", "zip": "32626-0802", "url": "http://www.dc.state.fl.us/orginfo/facilitydir.html", "address1": "224 N. Main Street, Suite 1", "state": "FL", "organization": "Chiefland", "identifier": "081"},
{"city": "Starke", "zip": "32091-2132", "url": "http://www.dc.state.fl.us/orginfo/facilitydir.html", "address1": "1200 Andrews Circle Drive, North", "state": "FL", "organization": "Starke", "identifier": "082"},
{"city": "Gainesville", "zip": "32605", "url": "http://www.dc.state.fl.us/orginfo/facilitydir.html", "address1": "7054 NW 10th Place", "state": "FL", "organization": "Gainesville West", "identifier": "083"},
{"city": "Gainesville", "zip": "32605", "url": "http://www.dc.state.fl.us/orginfo/facilitydir.html", "address1": "7054 NW 10th Place", "state": "FL", "organization": "Gainesville - Circuit", "identifier": "085"},
{"city": "Orlando", "zip": "32805-2137", "url": "http://www.dc.state.fl.us/orginfo/facilitydir.html", "address1": "31 Coburn Avenue", "state": "FL", "organization": "Orlando Southwest", "identifier": "09A"},
{"city": "Orlando", "zip": "32808-8009", "url": "http://www.dc.state.fl.us/orginfo/facilitydir.html", "address1": "3201-C West Colonial Drive", "state": "FL", "organization": "Orlando Metro", "identifier": "09B"},
{"city": "Orlando", "zip": "32808", "url": "http://www.dc.state.fl.us/orginfo/facilitydir.html", "address1": "3201-C West Colonial Drive", "state": "FL", "organization": "Orlando Main / Intake", "identifier": "093"},
{"city": "Orlando", "zip": "32780", "url": "http://www.dc.state.fl.us/orginfo/facilitydir.html", "address1": "27 Coburn Avenue", "state": "FL", "organization": "Orlando Circuit", "identifier": "090"},
{"city": "Orlando", "zip": "32805", "url": "http://www.dc.state.fl.us/orginfo/facilitydir.html", "address1": "27 Coburn Avenue", "state": "FL", "organization": "Orlando North", "identifier": "091"},
{"city": "Orlando", "zip": "32808", "url": "http://www.dc.state.fl.us/orginfo/facilitydir.html", "address1": "3201-B W. Colonial Drive", "state": "FL", "organization": "Orlando West", "identifier": "092"},
{"city": "Kissimmee", "zip": "34741", "url": "http://www.dc.state.fl.us/orginfo/facilitydir.html", "address1": "1605 North John Young Parkway", "state": "FL", "organization": "Kissimmee", "identifier": "094"},
{"city": "Orlando", "zip": "32805", "url": "http://www.dc.state.fl.us/orginfo/facilitydir.html", "address1": "29 Coburn Avenue", "state": "FL", "organization": "Orlando Central", "identifier": "096"},
{"city": "Panama City", "zip": "32401", "url": "http://www.dc.state.fl.us/orginfo/facilitydir.html", "address1": "499 Hwy 231 N", "state": "FL", "organization": "Panama City West / Intake", "identifier": "140"},
{"city": "Marianna", "zip": "32448", "url": "http://www.dc.state.fl.us/orginfo/facilitydir.html", "address1": "2863 Green Street", "state": "FL", "organization": "Marianna", "identifier": "141"},
{"city": "Chipley", "zip": "32428-1822", "url": "http://www.dc.state.fl.us/orginfo/facilitydir.html", "address1": "713 3rd Street", "state": "FL", "organization": "Chipley", "identifier": "143"},
{"city": "Panama City", "zip": "32404-6432", "url": "http://www.dc.state.fl.us/orginfo/facilitydir.html", "address1": "499 Hwy 231 N", "state": "FL", "organization": "Panama City East", "identifier": "144"},
{"city": "Panama City", "zip": "32405-2723", "url": "http://www.dc.state.fl.us/orginfo/facilitydir.html", "address1": "3621 West Highway 390", "state": "FL", "organization": "Panama City - Circuit", "identifier": "145"},
{"city": "Titusville", "zip": "32780", "url": "http://www.dc.state.fl.us/orginfo/facilitydir.html", "address1": "1431 Chaffee Drive, Suite 5", "state": "FL", "organization": "Titusville", "identifier": "180"},
{"city": "Melbourne", "zip": "32935-5367", "url": "http://www.dc.state.fl.us/orginfo/facilitydir.html", "address1": "1500 West Eau Gallie Blvd., Suite B-1", "state": "FL", "organization": "Melbourne Intake", "identifier": "181"},
{"city": "Cocoa", "zip": "32922", "url": "http://www.dc.state.fl.us/orginfo/facilitydir.html", "address1": "801 Dixon Blvd, Ste 1104", "state": "FL", "organization": "Cocoa", "identifier": "182"},
{"city": "Casselberry", "zip": "32707", "url": "http://www.dc.state.fl.us/orginfo/facilitydir.html", "address1": "101 Sunnytown Road, Ste 103", "state": "FL", "organization": "Sanford - Circuit", "identifier": "185"},
{"city": "Pinellas Park", "zip": "33781-5047", "url": "http://www.dc.state.fl.us/orginfo/facilitydir.html", "address1": "6655 - 66th Street North, Suite 1", "state": "FL", "organization": "Pinellas Park", "identifier": "06A"},
{"city": "Largo", "zip": "33778", "url": "http://www.dc.state.fl.us/orginfo/facilitydir.html", "address1": "11351 Ulmerton Road, Suite 106", "state": "FL", "organization": "Pinellas / Pasco Intake", "identifier": "06C"},
{"city": "Hudson", "zip": "34667-1948", "url": "http://www.dc.state.fl.us/orginfo/facilitydir.html", "address1": "12370 U.S. Highway 19", "state": "FL", "organization": "Hudson", "identifier": "06E"},
{"city": "Largo", "zip": "33778", "url": "http://www.dc.state.fl.us/orginfo/facilitydir.html", "address1": "11351 Ulmerton Road, Suite 105", "address2": "", "state": "FL", "organization": "Clearwater -Circuit", "identifier": "06F"},
{"city": "Clearwater", "zip": "33762-2800", "url": "http://www.dc.state.fl.us/orginfo/facilitydir.html", "address1": "14250 49th Street North, Rm. 1930", "state": "FL", "organization": "Pinellas Co. Court Unit", "identifier": "06G"},
{"city": "St. Petersburg", "zip": "33701", "url": "http://www.dc.state.fl.us/orginfo/facilitydir.html", "address1": "525 Mirror Lake Drive, #117", "state": "FL", "organization": "St. Petersburg", "identifier": "060"},
{"city": "Clearwater", "zip": "33756-5404", "url": "http://www.dc.state.fl.us/orginfo/facilitydir.html", "address1": "634 Park Street", "state": "FL", "organization": "Clearwater", "identifier": "061"},
{"city": "New Port Richey", "zip": "34654-5533", "url": "http://www.dc.state.fl.us/orginfo/facilitydir.html", "address1": "7619 Little Road, Suite C150", "state": "FL", "organization": "New Port Richey", "identifier": "062"},
{"city": "Dade City", "zip": "33523-3404", "url": "http://www.dc.state.fl.us/orginfo/facilitydir.html", "address1": "14450 7th Street", "state": "FL", "organization": "Dade City", "identifier": "063"},
{"city": "Largo", "zip": "33778-1631", "url": "http://www.dc.state.fl.us/orginfo/facilitydir.html", "address1": "11351 Ulmerton Road, Suite 200", "state": "FL", "organization": "Largo", "identifier": "064"},
{"city": "Tarpon Springs", "zip": "34689-1951", "url": "http://www.dc.state.fl.us/orginfo/facilitydir.html", "address1": "1501 S. Pinellas Ave., Suite L", "state": "FL", "organization": "Tarpon Springs", "identifier": "066"},
{"city": "St. Petersburg", "zip": "33701", "url": "http://www.dc.state.fl.us/orginfo/facilitydir.html", "address1": "525 Mirror Lake Drive, #116", "state": "FL", "organization": "St. Petersburg South", "identifier": "067"},
{"city": "Bartow", "zip": "33830-4905", "url": "http://www.dc.state.fl.us/orginfo/facilitydir.html", "address1": "970 East Main Street", "state": "FL", "organization": "Bartow - Main / Intake", "identifier": "100"},
{"city": "Lakeland", "zip": "33801", "url": "http://www.dc.state.fl.us/orginfo/facilitydir.html", "address1": "200 North Kentucky Avenue, Suite 516", "state": "FL", "organization": "Lakeland - Circuit Admin", "identifier": "10A"},
{"city": "Lakeland", "zip": "33801-4978", "url": "http://www.dc.state.fl.us/orginfo/facilitydir.html", "address1": "200 North Kentucky Avenue", "address2": "Suite 506", "state": "FL", "organization": "Lakeland North", "identifier": "101"},
{"city": "Winter Haven", "zip": "33880", "url": "http://www.dc.state.fl.us/orginfo/facilitydir.html", "address1": "1289 First Street South", "state": "FL", "organization": "Winter Haven", "identifier": "102"},
{"city": "Lake Wales", "zip": "33853-4419", "url": "http://www.dc.state.fl.us/orginfo/facilitydir.html", "address1": "608 State Road 60", "state": "FL", "organization": "Lake Wales", "identifier": "103"},
{"city": "Sebring", "zip": "33870-2100", "url": "http://www.dc.state.fl.us/orginfo/facilitydir.html", "address1": "171 U.S. Highway 27 North", "state": "FL", "organization": "Sebring", "identifier": "104"},
{"city": "Wauchula", "zip": "33873-2832", "url": "http://www.dc.state.fl.us/orginfo/facilitydir.html", "address1": "124 S. 9th Ave. Suite 200", "state": "FL", "organization": "Wauchula", "identifier": "105"},
{"city": "Bartow", "zip": "33830", "url": "http://www.dc.state.fl.us/orginfo/facilitydir.html", "address1": "970 E. Main Street, Suite B", "state": "FL", "organization": "Lakeland South", "identifier": "106"},
{"city": "Haines City", "zip": "33844", "url": "http://www.dc.state.fl.us/orginfo/facilitydir.html", "address1": "233 North 9th Street", "state": "FL", "organization": "Haines City", "identifier": "107"},
{"city": "Miami", "zip": "33128", "url": "http://www.dc.state.fl.us/orginfo/facilitydir.html", "address1": "401 NW 2nd Ave.", "address2": "Room S607, South Tower", "state": "FL", "organization": "Miami - Circuit Office", "identifier": "110"},
{"city": "Miami", "zip": "33147", "url": "http://www.dc.state.fl.us/orginfo/facilitydir.html", "address1": "7900 N.W. 27 Avenue", "address2": "149 North Court, Suite D-6", "state": "FL", "organization": "Miami - Intake", "identifier": "11B"},
{"city": "Miami", "zip": "33147", "url": "http://www.dc.state.fl.us/orginfo/facilitydir.html", "address1": "7900 N.W. 27 Avenue", "address2": "149 North Court, Suite D6", "state": "FL", "organization": "Coconut Grove", "identifier": "11C"},
{"city": "Miami", "zip": "33056", "url": "http://www.dc.state.fl.us/orginfo/facilitydir.html", "address1": "3601 Northwest 167th Street", "state": "FL", "organization": "Miami Northwest", "identifier": "111"},
{"city": "Miami", "zip": "33128", "url": "http://www.dc.state.fl.us/orginfo/facilitydir.html", "address1": "401 Northwest 2nd Avenue, S607", "state": "FL", "organization": "Miami East", "identifier": "112"},
{"city": "Miami", "zip": "33186", "url": "http://www.dc.state.fl.us/orginfo/facilitydir.html", "address1": "12295 Southwest 133rd Court", "state": "FL", "organization": "Miami South", "identifier": "113"},
{"city": "Miami", "zip": "33056", "url": "http://www.dc.state.fl.us/orginfo/facilitydir.html", "address1": "3601 Northwest 167th Street", "state": "FL", "organization": "Miami North", "identifier": "114"},
{"city": "Florida City", "zip": "33034", "url": "http://www.dc.state.fl.us/orginfo/facilitydir.html", "address1": "1448 North Krome Avenue #102", "state": "FL", "organization": "Homestead", "identifier": "115"},
{"city": "Miami", "zip": "33130", "url": "http://www.dc.state.fl.us/orginfo/facilitydir.html", "address1": "7900 N.W. 27 Avenue", "address2": "149 N Court, Suite D-6", "state": "FL", "organization": "Biscayne", "identifier": "116"},
{"city": "Miami", "zip": "33056-4102", "url": "http://www.dc.state.fl.us/orginfo/facilitydir.html", "address1": "3601 Northwest 167th Street", "state": "FL", "organization": "Miami - Hialeah", "identifier": "117"},
{"city": "Miami", "zip": "33056-4102", "url": "http://www.dc.state.fl.us/orginfo/facilitydir.html", "address1": "3601 Northwest 167th Street", "state": "FL", "organization": "Miami Lakes", "identifier": "118"},
{"city": "Sarasota", "zip": "34237-7008", "url": "http://www.dc.state.fl.us/orginfo/facilitydir.html", "address1": "2074 Ringling Boulevard, Suite 23", "state": "FL", "organization": "Sarasota - Circuit", "identifier": "120"},
{"city": "Bradenton", "zip": "34205-8820", "url": "http://www.dc.state.fl.us/orginfo/facilitydir.html", "address1": "399 6th Avenue, West", "state": "FL", "organization": "Bradenton", "identifier": "121"},
{"city": "Arcadia", "zip": "34266-4550", "url": "http://www.dc.state.fl.us/orginfo/facilitydir.html", "address1": "301 North Brevard Avenue", "address2": "Suite F", "state": "FL", "organization": "Arcadia", "identifier": "122"},
{"city": "Osprey", "zip": "34229-9209", "url": "http://www.dc.state.fl.us/orginfo/facilitydir.html", "address1": "658 South Tamiami Trail", "state": "FL", "organization": "Holiday Harbor", "identifier": "123"},
{"city": "Sarasota", "zip": "34234", "url": "http://www.dc.state.fl.us/orginfo/facilitydir.html", "address1": "1844 17th Street", "state": "FL", "organization": "Bayshore Gardens", "identifier": "124"},
{"city": "Tampa", "zip": "33610-7371", "url": "http://www.dc.state.fl.us/orginfo/facilitydir.html", "address1": "4510 Oakfair Boulevard, Suite 250", "state": "FL", "organization": "Tampa East", "identifier": "13A"},
{"city": "Tampa", "zip": "33602-3328", "url": "http://www.dc.state.fl.us/orginfo/facilitydir.html", "address1": "1313 N. Tampa Street", "address2": "Suite 124 Annex", "state": "FL", "organization": "Tampa Intake", "identifier": "13C"},
{"city": "Tampa", "zip": "33614-3267", "url": "http://www.dc.state.fl.us/orginfo/facilitydir.html", "address1": "7829 N. Dale Mabry Highway, Suite 108", "state": "FL", "organization": "Tampa Hilldale", "identifier": "13D"},
{"city": "Tampa", "zip": "33617-7735", "url": "http://www.dc.state.fl.us/orginfo/facilitydir.html", "address1": "7402 North 56th Street", "address2": "Building 100, Suite 100", "state": "FL", "organization": "Tampa - Eastlake", "identifier": "13F"},
{"city": "Tampa", "zip": "33602-3330", "url": "http://www.dc.state.fl.us/orginfo/facilitydir.html", "address1": "1313 N. Tampa Street, Suite 809", "state": "FL", "organization": "Tampa-Circuit Administration", "identifier": "130"},
{"city": "Plant City", "zip": "33563-5158", "url": "http://www.dc.state.fl.us/orginfo/facilitydir.html", "address1": "712 West MLK Jr. Blvd.", "state": "FL", "organization": "Plant City", "identifier": "131"},
{"city": "Gibsonton", "zip": "33534", "url": "http://www.dc.state.fl.us/orginfo/facilitydir.html", "address1": "11112 US Hwy 41 South", "state": "FL", "organization": "Riverview", "identifier": "132"},
{"city": "Tampa", "zip": "33617-7731", "url": "http://www.dc.state.fl.us/orginfo/facilitydir.html", "address1": "7402 North 56th Street", "address2": "Corporate Square, Suite 750", "state": "FL", "organization": "Tampa Northeast", "identifier": "133"},
{"city": "Tampa", "zip": "33612-4220", "url": "http://www.dc.state.fl.us/orginfo/facilitydir.html", "address1": "12421 North Florida Avenue,", "address2": "Suite A-110", "state": "FL", "organization": "Tampa North", "identifier": "134"},
{"city": "Tampa", "zip": "33602", "url": "http://www.dc.state.fl.us/orginfo/facilitydir.html", "address1": "1313 N. Tampa St., Suite 438", "state": "FL", "organization": "Tampa Central", "identifier": "135"},
{"city": "Tampa", "zip": "33602", "url": "http://www.dc.state.fl.us/orginfo/facilitydir.html", "address1": "1313 N. Tampa Street, Suite 219S", "state": "FL", "organization": "Tampa Pre-Trial Intervention", "identifier": "138"},
{"city": "West Palm Beach", "zip": "33401-5939", "url": "http://www.dc.state.fl.us/orginfo/facilitydir.html", "address1": "315 S. Dixie Highway, Suite 102", "state": "FL", "organization": "West Palm Beach - Circuit", "identifier": "150"},
{"city": "West Palm Beach", "zip": "33401", "url": "http://www.dc.state.fl.us/orginfo/facilitydir.html", "address1": "423 Fern Street, Suite 100", "state": "FL", "organization": "West Palm Beach - Intake", "identifier": "150"},
{"city": "Belle Glade", "zip": "33430", "url": "http://www.dc.state.fl.us/orginfo/facilitydir.html", "address1": "38680 State Road 80", "state": "FL", "organization": "Belle Glade", "identifier": "151"},
{"city": "Boynton Beach", "zip": "33426", "url": "http://www.dc.state.fl.us/orginfo/facilitydir.html", "address1": "3200 South Congress Avenue", "address2": "Suite 100", "state": "FL", "organization": "Boynton Beach", "identifier": "152"},
{"city": "Magnonia Park", "zip": "33407", "url": "http://www.dc.state.fl.us/orginfo/facilitydir.html", "address1": "4480 South Tiffany Drive,", "address2": "Suite 1001", "state": "FL", "organization": "West Palm Beach Central", "identifier": "153"},
{"city": "Lake Worth", "zip": "33461-3022", "url": "http://www.dc.state.fl.us/orginfo/facilitydir.html", "address1": "3444 South Congress Avenue", "state": "FL", "organization": "Lake Worth", "identifier": "154"},
{"city": "Key West", "zip": "33040-4086", "url": "http://www.dc.state.fl.us/orginfo/facilitydir.html", "address1": "Professional Building", "address2": "1111 12th Street, Suite 402", "state": "FL", "organization": "Key West", "identifier": "160"},
{"city": "Marathon", "zip": "33050", "url": "http://www.dc.state.fl.us/orginfo/facilitydir.html", "address1": "2796 Overseas Highway, Room 202", "state": "FL", "organization": "Marathon - Circuit", "identifier": "161"},
{"city": "Islamorada", "zip": "33036-3067", "url": "http://www.dc.state.fl.us/orginfo/facilitydir.html", "address1": "88005 Overseas Highway", "state": "FL", "organization": "Tavernier", "identifier": "162"},
{"city": "Lauderdale Lakes", "zip": "33311", "url": "http://www.dc.state.fl.us/orginfo/facilitydir.html", "address1": "3708A West Oakland Park Boulevard", "state": "FL", "organization": "Tamarac", "identifier": "17A"},
{"city": "Lauderdale Lakes", "zip": "33311-1134", "url": "http://www.dc.state.fl.us/orginfo/facilitydir.html", "address1": "3708A West Oakland Park Blvd.", "state": "FL", "organization": "Ft. Lauderdale-Intake / Circuit", "identifier": "170"},
{"city": "Lauderdale Lakes", "zip": "33311", "url": "http://www.dc.state.fl.us/orginfo/facilitydir.html", "address1": "3714 W Oakland Park Blvd", "state": "FL", "organization": "Broward North", "identifier": "171"},
{"city": "Lauderdale Lakes", "zip": "33311", "url": "http://www.dc.state.fl.us/orginfo/facilitydir.html", "address1": "3718-4 West Oakland Park Boulevard", "state": "FL", "organization": "Broward South", "identifier": "172"},
{"city": "Ft. Lauderdale", "zip": "33309", "url": "http://www.dc.state.fl.us/orginfo/facilitydir.html", "address1": "5610 NW 9th Ave", "state": "FL", "organization": "Cypress", "identifier": "174"},
{"city": "Ft. Lauderdale", "zip": "33313-1912", "url": "http://www.dc.state.fl.us/orginfo/facilitydir.html", "address1": "2928 North State Road 7", "state": "FL", "organization": "Ft. Lauderdale East", "identifier": "175"},
{"city": "Ft. Lauderdale", "zip": "33312-1038", "url": "http://www.dc.state.fl.us/orginfo/facilitydir.html", "address1": "3520 West Broward Boulevard", "address2": "Kingston Building, Second Floor", "state": "FL", "organization": "Plantation", "identifier": "177"},
{"city": "Hollywood", "zip": "33020-3540", "url": "http://www.dc.state.fl.us/orginfo/facilitydir.html", "address1": "1050 North Federal Highway", "state": "FL", "organization": "Hollywood", "identifier": "178"},
{"city": "Ft. Pierce", "zip": "34982", "url": "http://www.dc.state.fl.us/orginfo/facilitydir.html", "address1": "2806 South US 1", "state": "FL", "organization": "Ft. Pierce- Circuit / Intake", "identifier": "190"},
{"city": "Stuart", "zip": "34994-2237", "url": "http://www.dc.state.fl.us/orginfo/facilitydir.html", "address1": "2015 S. Kanner Hwy", "state": "FL", "organization": "Stuart", "identifier": "191"},
{"city": "Vero Beach", "zip": "32960-3773", "url": "http://www.dc.state.fl.us/orginfo/facilitydir.html", "address1": "1470 Old Dixie Highway", "state": "FL", "organization": "Vero Beach", "identifier": "192"},
{"city": "Okeechobee", "zip": "34973-9408", "url": "http://www.dc.state.fl.us/orginfo/facilitydir.html", "address1": "P.O. Box 1803", "state": "FL", "organization": "Okeechobee", "identifier": "193"},
{"city": "Ft. Pierce", "zip": "34982-8113", "url": "http://www.dc.state.fl.us/orginfo/facilitydir.html", "address1": "3214 South U.S. Highway 1, Suite 7", "state": "FL", "organization": "Ft. Pierce East", "identifier": "194"},
{"city": "Fort Myers", "zip": "33901", "url": "http://www.dc.state.fl.us/orginfo/facilitydir.html", "address1": "2295 Victoria Avenue, Rm# 170", "state": "FL", "organization": "Ft. Myers-Circuit", "identifier": "200"},
{"city": "Naples", "zip": "34112-2884", "url": "http://www.dc.state.fl.us/orginfo/facilitydir.html", "address1": "2500 Airport Road, Suite 114", "state": "FL", "organization": "Naples South", "identifier": "201"},
{"city": "LaBelle", "zip": "33935", "url": "http://www.dc.state.fl.us/orginfo/facilitydir.html", "address1": "481 East Cowboy Way", "state": "FL", "organization": "Labelle", "identifier": "202"},
{"city": "Punta Gorda", "zip": "33950-3635", "url": "http://www.dc.state.fl.us/orginfo/facilitydir.html", "address1": "121 E. Marion Avenue, Suite 125", "state": "FL", "organization": "Punta Gorda", "identifier": "203"},
{"city": "Ft. Myers", "zip": "33901-2998", "url": "http://www.dc.state.fl.us/orginfo/facilitydir.html", "address1": "2295 Victoria Ave. Room 172", "state": "FL", "organization": "Ft. Myers South", "identifier": "204"},
{"city": "Ft. Myers", "zip": "33901", "url": "http://www.dc.state.fl.us/orginfo/facilitydir.html", "address1": "2295 Victoria Ave. Room 163", "state": "FL", "organization": "Lee County Intake", "identifier": "207"}]